{"type":"FeatureCollection","features":[{"type":"Feature","properties":{"name":"Tegalluar Summarecon","name_en":"","name_zh":"德卡鲁瓦"},"geometry":{"type":"Point","coordinates":[107.71469780000001,-6.963812]}},{"type":"Feature","properties":{"name":"Karawang","name_en":"","name_zh":"加拉璜"},"geometry":{"type":"Point","coordinates":[107.218992,-6.3646774]}},{"type":"Feature","properties":{"name":"Halim","name_en":"Halim","name_zh":"哈林"},"geometry":{"type":"Point","coordinates":[106.8844875,-6.2456352]}},{"type":"Feature","properties":{"name":"Padalarang","name_en":"Padalarang","name_zh":""},"geometry":{"type":"Point","coordinates":[107.49690930000001,-6.8422655]}}]}