{"type":"FeatureCollection","features":[{"type":"Feature","properties":{},"geometry":{"type":"LineString","coordinates":[[106.922,-6.2586],[106.9579,-6.2568],[106.964,-6.2551],[106.9725,-6.2501],[106.9769,-6.249],[106.9814,-6.2496],[106.9893,-6.2531]]}},{"type":"Feature","properties":{},"geometry":{"type":"LineString","coordinates":[[106.9893,-6.253],[106.9814,-6.2495],[106.9769,-6.2489],[106.9725,-6.2501],[106.9639,-6.2551],[106.9579,-6.2567],[106.922,-6.2585]]}},{"type":"Feature","properties":{},"geometry":{"type":"LineString","coordinates":[[107.7095,-6.9665],[107.7147,-6.9638]]}},{"type":"Feature","properties":{},"geometry":{"type":"LineString","coordinates":[[107.4563,-6.8048],[107.4514,-6.8018]]}},{"type":"Feature","properties":{},"geometry":{"type":"LineString","coordinates":[[107.4563,-6.8048],[107.462,-6.8075]]}},{"type":"Feature","properties":{},"geometry":{"type":"LineString","coordinates":[[107.4912,-6.8365],[107.4854,-6.8272]]}},{"type":"Feature","properties":{},"geometry":{"type":"LineString","coordinates":[[107.4854,-6.8272],[107.4912,-6.8366]]}},{"type":"Feature","properties":{},"geometry":{"type":"LineString","coordinates":[[107.5185,-6.8732],[107.5173,-6.8691],[107.5133,-6.8602],[107.5059,-6.8503],[107.4988,-6.8437]]}},{"type":"Feature","properties":{},"geometry":{"type":"LineString","coordinates":[[107.4988,-6.8438],[107.5059,-6.8503],[107.5132,-6.8603],[107.5173,-6.8691],[107.5184,-6.8732]]}},{"type":"Feature","properties":{},"geometry":{"type":"LineString","coordinates":[[107.5184,-6.8732],[107.52,-6.8829]]}},{"type":"Feature","properties":{},"geometry":{"type":"LineString","coordinates":[[107.52,-6.8829],[107.5185,-6.8732]]}},{"type":"Feature","properties":{},"geometry":{"type":"LineString","coordinates":[[107.7049,-6.969],[107.7013,-6.9704],[107.6974,-6.9707],[107.6666,-6.9676],[107.6496,-6.9644],[107.6399,-6.9656],[107.6266,-6.9639]]}},{"type":"Feature","properties":{},"geometry":{"type":"LineString","coordinates":[[107.6266,-6.964],[107.6398,-6.9656],[107.6496,-6.9645],[107.6666,-6.9676],[107.6974,-6.9708],[107.7013,-6.9705],[107.7049,-6.969]]}},{"type":"Feature","properties":{},"geometry":{"type":"LineString","coordinates":[[107.4265,-6.7616],[107.4228,-6.754]]}},{"type":"Feature","properties":{},"geometry":{"type":"LineString","coordinates":[[107.4277,-6.7641],[107.4364,-6.7818]]}},{"type":"Feature","properties":{},"geometry":{"type":"LineString","coordinates":[[107.4228,-6.754],[107.4265,-6.7616]]}},{"type":"Feature","properties":{},"geometry":{"type":"LineString","coordinates":[[107.4364,-6.7818],[107.4278,-6.7641]]}},{"type":"Feature","properties":{},"geometry":{"type":"LineString","coordinates":[[107.4219,-6.5648],[107.4195,-6.5737]]}},{"type":"Feature","properties":{},"geometry":{"type":"LineString","coordinates":[[107.4195,-6.5738],[107.4219,-6.5648]]}},{"type":"Feature","properties":{},"geometry":{"type":"LineString","coordinates":[[107.4195,-6.5737],[107.4183,-6.5775]]}},{"type":"Feature","properties":{},"geometry":{"type":"LineString","coordinates":[[107.4183,-6.5775],[107.4195,-6.5738]]}},{"type":"Feature","properties":{},"geometry":{"type":"LineString","coordinates":[[107.4181,-6.5781],[107.4156,-6.5838]]}},{"type":"Feature","properties":{},"geometry":{"type":"LineString","coordinates":[[107.4156,-6.5838],[107.4181,-6.5781]]}},{"type":"Feature","properties":{},"geometry":{"type":"LineString","coordinates":[[107.4151,-6.5848],[107.4135,-6.5879]]}},{"type":"Feature","properties":{},"geometry":{"type":"LineString","coordinates":[[107.4135,-6.5879],[107.4151,-6.5849]]}},{"type":"Feature","properties":{},"geometry":{"type":"LineString","coordinates":[[107.4062,-6.5992],[107.4127,-6.5893]]}},{"type":"Feature","properties":{},"geometry":{"type":"LineString","coordinates":[[107.4127,-6.5893],[107.4062,-6.5992]]}},{"type":"Feature","properties":{},"geometry":{"type":"LineString","coordinates":[[107.4025,-6.6051],[107.3991,-6.6124],[107.3974,-6.6189]]}},{"type":"Feature","properties":{},"geometry":{"type":"LineString","coordinates":[[107.3974,-6.6189],[107.3992,-6.6124],[107.4025,-6.6051]]}},{"type":"Feature","properties":{},"geometry":{"type":"LineString","coordinates":[[107.4181,-6.7444],[107.413,-6.734]]}},{"type":"Feature","properties":{},"geometry":{"type":"LineString","coordinates":[[107.413,-6.734],[107.4181,-6.7444]]}},{"type":"Feature","properties":{},"geometry":{"type":"LineString","coordinates":[[107.4187,-6.7455],[107.4181,-6.7444]]}},{"type":"Feature","properties":{},"geometry":{"type":"LineString","coordinates":[[107.4181,-6.7444],[107.4186,-6.7455]]}},{"type":"Feature","properties":{},"geometry":{"type":"LineString","coordinates":[[107.4228,-6.754],[107.4204,-6.7491]]}},{"type":"Feature","properties":{},"geometry":{"type":"LineString","coordinates":[[107.4204,-6.7491],[107.4228,-6.754]]}},{"type":"Feature","properties":{},"geometry":{"type":"LineString","coordinates":[[107.4048,-6.6925],[107.4057,-6.7117],[107.4076,-6.7199],[107.4119,-6.7318]]}},{"type":"Feature","properties":{},"geometry":{"type":"LineString","coordinates":[[107.4119,-6.7318],[107.4077,-6.7199],[107.4058,-6.7116],[107.4049,-6.6925]]}},{"type":"Feature","properties":{},"geometry":{"type":"LineString","coordinates":[[107.1507,-6.3215],[107.1041,-6.2947],[107.096,-6.2906],[107.0552,-6.2777],[107.037,-6.2698],[107.0189,-6.2636]]}},{"type":"Feature","properties":{},"geometry":{"type":"LineString","coordinates":[[107.0189,-6.2636],[107.0369,-6.2698],[107.0552,-6.2778],[107.0959,-6.2906],[107.1041,-6.2947],[107.1507,-6.3216]]}},{"type":"Feature","properties":{},"geometry":{"type":"LineString","coordinates":[[106.9008,-6.2494],[106.8959,-6.2435],[106.8934,-6.2429],[106.8902,-6.2438]]}},{"type":"Feature","properties":{},"geometry":{"type":"LineString","coordinates":[[106.8902,-6.2439],[106.8934,-6.2429],[106.8959,-6.2436],[106.9007,-6.2494]]}},{"type":"Feature","properties":{},"geometry":{"type":"LineString","coordinates":[[107.4212,-6.5306],[107.4184,-6.5241],[107.4143,-6.5177]]}},{"type":"Feature","properties":{},"geometry":{"type":"LineString","coordinates":[[107.4143,-6.5177],[107.4183,-6.5241],[107.4211,-6.5306]]}},{"type":"Feature","properties":{},"geometry":{"type":"LineString","coordinates":[[106.9034,-6.2527],[106.9008,-6.2494]]}},{"type":"Feature","properties":{},"geometry":{"type":"LineString","coordinates":[[106.9007,-6.2494],[106.9034,-6.2528]]}},{"type":"Feature","properties":{},"geometry":{"type":"LineString","coordinates":[[106.9187,-6.2587],[106.9119,-6.2576],[106.9058,-6.2547],[106.9034,-6.2527]]}},{"type":"Feature","properties":{},"geometry":{"type":"LineString","coordinates":[[106.9034,-6.2528],[106.9058,-6.2547],[106.9119,-6.2577],[106.9187,-6.2587]]}},{"type":"Feature","properties":{},"geometry":{"type":"LineString","coordinates":[[107.7089,-6.9667],[107.7064,-6.9681]]}},{"type":"Feature","properties":{},"geometry":{"type":"LineString","coordinates":[[107.7182,-6.9616],[107.7147,-6.9638]]}},{"type":"Feature","properties":{},"geometry":{"type":"LineString","coordinates":[[107.2159,-6.3617],[107.1973,-6.3448],[107.1895,-6.3395],[107.18,-6.3349],[107.1648,-6.3293],[107.1507,-6.3215]]}},{"type":"Feature","properties":{},"geometry":{"type":"LineString","coordinates":[[107.1507,-6.3216],[107.1648,-6.3293],[107.18,-6.335],[107.1895,-6.3396],[107.1973,-6.3449],[107.2158,-6.3618]]}},{"type":"Feature","properties":{},"geometry":{"type":"LineString","coordinates":[[107.6266,-6.9639],[107.6242,-6.9632]]}},{"type":"Feature","properties":{},"geometry":{"type":"LineString","coordinates":[[107.6242,-6.9632],[107.6239,-6.9631]]}},{"type":"Feature","properties":{},"geometry":{"type":"LineString","coordinates":[[107.6209,-6.9618],[107.6154,-6.9605]]}},{"type":"Feature","properties":{},"geometry":{"type":"LineString","coordinates":[[107.6242,-6.9633],[107.6266,-6.964]]}},{"type":"Feature","properties":{},"geometry":{"type":"LineString","coordinates":[[107.6239,-6.9631],[107.6242,-6.9633]]}},{"type":"Feature","properties":{},"geometry":{"type":"LineString","coordinates":[[107.6154,-6.9605],[107.6208,-6.9618]]}},{"type":"Feature","properties":{},"geometry":{"type":"LineString","coordinates":[[107.5923,-6.9621],[107.5858,-6.9622]]}},{"type":"Feature","properties":{},"geometry":{"type":"LineString","coordinates":[[107.5858,-6.9623],[107.5923,-6.9621]]}},{"type":"Feature","properties":{},"geometry":{"type":"LineString","coordinates":[[107.6006,-6.9615],[107.5976,-6.9617]]}},{"type":"Feature","properties":{},"geometry":{"type":"LineString","coordinates":[[107.5976,-6.9617],[107.5923,-6.9621]]}},{"type":"Feature","properties":{},"geometry":{"type":"LineString","coordinates":[[107.5976,-6.9618],[107.6006,-6.9615]]}},{"type":"Feature","properties":{},"geometry":{"type":"LineString","coordinates":[[107.5923,-6.9621],[107.5976,-6.9618]]}},{"type":"Feature","properties":{},"geometry":{"type":"LineString","coordinates":[[107.6154,-6.9605],[107.6006,-6.9615]]}},{"type":"Feature","properties":{},"geometry":{"type":"LineString","coordinates":[[107.5858,-6.9622],[107.5813,-6.9608],[107.5652,-6.9522],[107.5607,-6.9484],[107.547,-6.9291],[107.5451,-6.9246],[107.543,-6.9148],[107.5415,-6.9117],[107.5357,-6.9047],[107.5326,-6.8978],[107.5235,-6.8894],[107.52,-6.8829]]}},{"type":"Feature","properties":{},"geometry":{"type":"LineString","coordinates":[[107.6006,-6.9615],[107.6154,-6.9605]]}},{"type":"Feature","properties":{},"geometry":{"type":"LineString","coordinates":[[107.52,-6.8829],[107.5235,-6.8894],[107.5326,-6.8978],[107.5357,-6.9047],[107.5414,-6.9117],[107.543,-6.9148],[107.5451,-6.9246],[107.5469,-6.9292],[107.561,-6.9489],[107.5664,-6.9529],[107.5812,-6.9608],[107.5858,-6.9623]]}},{"type":"Feature","properties":{},"geometry":{"type":"LineString","coordinates":[[107.4854,-6.8272],[107.4841,-6.8249]]}},{"type":"Feature","properties":{},"geometry":{"type":"LineString","coordinates":[[107.4841,-6.8249],[107.4828,-6.823]]}},{"type":"Feature","properties":{},"geometry":{"type":"LineString","coordinates":[[107.4828,-6.823],[107.4816,-6.8215]]}},{"type":"Feature","properties":{},"geometry":{"type":"LineString","coordinates":[[107.4816,-6.8215],[107.4792,-6.8187]]}},{"type":"Feature","properties":{},"geometry":{"type":"LineString","coordinates":[[107.4792,-6.8187],[107.4784,-6.8179]]}},{"type":"Feature","properties":{},"geometry":{"type":"LineString","coordinates":[[107.4784,-6.8179],[107.4772,-6.8167]]}},{"type":"Feature","properties":{},"geometry":{"type":"LineString","coordinates":[[107.4772,-6.8167],[107.4762,-6.8159]]}},{"type":"Feature","properties":{},"geometry":{"type":"LineString","coordinates":[[107.4762,-6.8159],[107.4741,-6.8142]]}},{"type":"Feature","properties":{},"geometry":{"type":"LineString","coordinates":[[107.4741,-6.8142],[107.4697,-6.8112]]}},{"type":"Feature","properties":{},"geometry":{"type":"LineString","coordinates":[[107.484,-6.8249],[107.4854,-6.8272]]}},{"type":"Feature","properties":{},"geometry":{"type":"LineString","coordinates":[[107.4827,-6.823],[107.484,-6.8249]]}},{"type":"Feature","properties":{},"geometry":{"type":"LineString","coordinates":[[107.4816,-6.8215],[107.4827,-6.823]]}},{"type":"Feature","properties":{},"geometry":{"type":"LineString","coordinates":[[107.4791,-6.8187],[107.4816,-6.8215]]}},{"type":"Feature","properties":{},"geometry":{"type":"LineString","coordinates":[[107.4784,-6.818],[107.4791,-6.8187]]}},{"type":"Feature","properties":{},"geometry":{"type":"LineString","coordinates":[[107.4772,-6.8168],[107.4784,-6.818]]}},{"type":"Feature","properties":{},"geometry":{"type":"LineString","coordinates":[[107.4762,-6.8159],[107.4772,-6.8168]]}},{"type":"Feature","properties":{},"geometry":{"type":"LineString","coordinates":[[107.4741,-6.8142],[107.4762,-6.8159]]}},{"type":"Feature","properties":{},"geometry":{"type":"LineString","coordinates":[[107.4697,-6.8112],[107.4741,-6.8142]]}},{"type":"Feature","properties":{},"geometry":{"type":"LineString","coordinates":[[107.4941,-6.8394],[107.4912,-6.8365]]}},{"type":"Feature","properties":{},"geometry":{"type":"LineString","coordinates":[[107.4912,-6.8366],[107.4941,-6.8395]]}},{"type":"Feature","properties":{},"geometry":{"type":"LineString","coordinates":[[106.8845,-6.2457],[106.8902,-6.2439]]}},{"type":"Feature","properties":{},"geometry":{"type":"LineString","coordinates":[[106.8902,-6.2438],[106.8845,-6.2456]]}},{"type":"Feature","properties":{},"geometry":{"type":"LineString","coordinates":[[107.4219,-6.5648],[107.4222,-6.5636]]}},{"type":"Feature","properties":{},"geometry":{"type":"LineString","coordinates":[[107.4222,-6.5636],[107.4238,-6.5558]]}},{"type":"Feature","properties":{},"geometry":{"type":"LineString","coordinates":[[107.4238,-6.5558],[107.4243,-6.5477]]}},{"type":"Feature","properties":{},"geometry":{"type":"LineString","coordinates":[[107.4243,-6.5477],[107.424,-6.5431]]}},{"type":"Feature","properties":{},"geometry":{"type":"LineString","coordinates":[[107.424,-6.5431],[107.4229,-6.5365]]}},{"type":"Feature","properties":{},"geometry":{"type":"LineString","coordinates":[[107.4229,-6.5365],[107.4212,-6.5306]]}},{"type":"Feature","properties":{},"geometry":{"type":"LineString","coordinates":[[107.4102,-6.5126],[107.4058,-6.5085]]}},{"type":"Feature","properties":{},"geometry":{"type":"LineString","coordinates":[[107.4058,-6.5085],[107.4044,-6.5074]]}},{"type":"Feature","properties":{},"geometry":{"type":"LineString","coordinates":[[107.4044,-6.5074],[107.3973,-6.5026],[107.3822,-6.4949]]}},{"type":"Feature","properties":{},"geometry":{"type":"LineString","coordinates":[[107.3677,-6.4851],[107.361,-6.4793]]}},{"type":"Feature","properties":{},"geometry":{"type":"LineString","coordinates":[[107.361,-6.4793],[107.3601,-6.4785]]}},{"type":"Feature","properties":{},"geometry":{"type":"LineString","coordinates":[[107.3601,-6.4785],[107.3578,-6.4766]]}},{"type":"Feature","properties":{},"geometry":{"type":"LineString","coordinates":[[107.3578,-6.4766],[107.3557,-6.4748]]}},{"type":"Feature","properties":{},"geometry":{"type":"LineString","coordinates":[[107.3557,-6.4748],[107.3528,-6.4723]]}},{"type":"Feature","properties":{},"geometry":{"type":"LineString","coordinates":[[107.3528,-6.4723],[107.3521,-6.4717]]}},{"type":"Feature","properties":{},"geometry":{"type":"LineString","coordinates":[[107.3521,-6.4717],[107.3453,-6.4659]]}},{"type":"Feature","properties":{},"geometry":{"type":"LineString","coordinates":[[107.3453,-6.4659],[107.3405,-6.4618]]}},{"type":"Feature","properties":{},"geometry":{"type":"LineString","coordinates":[[107.3405,-6.4618],[107.3344,-6.4565]]}},{"type":"Feature","properties":{},"geometry":{"type":"LineString","coordinates":[[107.3344,-6.4565],[107.3325,-6.455]]}},{"type":"Feature","properties":{},"geometry":{"type":"LineString","coordinates":[[107.3325,-6.455],[107.325,-6.4485]]}},{"type":"Feature","properties":{},"geometry":{"type":"LineString","coordinates":[[107.325,-6.4485],[107.3232,-6.4469]]}},{"type":"Feature","properties":{},"geometry":{"type":"LineString","coordinates":[[107.3232,-6.4469],[107.3118,-6.4372]]}},{"type":"Feature","properties":{},"geometry":{"type":"LineString","coordinates":[[107.3118,-6.4372],[107.3104,-6.436]]}},{"type":"Feature","properties":{},"geometry":{"type":"LineString","coordinates":[[107.3104,-6.436],[107.308,-6.4339]]}},{"type":"Feature","properties":{},"geometry":{"type":"LineString","coordinates":[[107.308,-6.4339],[107.307,-6.4331]]}},{"type":"Feature","properties":{},"geometry":{"type":"LineString","coordinates":[[107.307,-6.4331],[107.305,-6.4313]]}},{"type":"Feature","properties":{},"geometry":{"type":"LineString","coordinates":[[107.3035,-6.43],[107.3016,-6.4284]]}},{"type":"Feature","properties":{},"geometry":{"type":"LineString","coordinates":[[107.3016,-6.4284],[107.2961,-6.4237]]}},{"type":"Feature","properties":{},"geometry":{"type":"LineString","coordinates":[[107.2961,-6.4237],[107.2956,-6.4233]]}},{"type":"Feature","properties":{},"geometry":{"type":"LineString","coordinates":[[107.2956,-6.4233],[107.2936,-6.4215]]}},{"type":"Feature","properties":{},"geometry":{"type":"LineString","coordinates":[[107.2936,-6.4215],[107.2919,-6.4201]]}},{"type":"Feature","properties":{},"geometry":{"type":"LineString","coordinates":[[107.2919,-6.4201],[107.2889,-6.4175]]}},{"type":"Feature","properties":{},"geometry":{"type":"LineString","coordinates":[[107.2889,-6.4175],[107.2883,-6.4171]]}},{"type":"Feature","properties":{},"geometry":{"type":"LineString","coordinates":[[107.2883,-6.4171],[107.2807,-6.4105]]}},{"type":"Feature","properties":{},"geometry":{"type":"LineString","coordinates":[[107.2807,-6.4105],[107.2745,-6.4052]]}},{"type":"Feature","properties":{},"geometry":{"type":"LineString","coordinates":[[107.2745,-6.4052],[107.2742,-6.4049]]}},{"type":"Feature","properties":{},"geometry":{"type":"LineString","coordinates":[[107.2742,-6.4049],[107.271,-6.4022]]}},{"type":"Feature","properties":{},"geometry":{"type":"LineString","coordinates":[[107.271,-6.4022],[107.2702,-6.4014]]}},{"type":"Feature","properties":{},"geometry":{"type":"LineString","coordinates":[[107.2702,-6.4014],[107.27,-6.4012]]}},{"type":"Feature","properties":{},"geometry":{"type":"LineString","coordinates":[[107.27,-6.4012],[107.2629,-6.3958]]}},{"type":"Feature","properties":{},"geometry":{"type":"LineString","coordinates":[[107.2629,-6.3958],[107.2525,-6.3894]]}},{"type":"Feature","properties":{},"geometry":{"type":"LineString","coordinates":[[107.2525,-6.3894],[107.2501,-6.388]]}},{"type":"Feature","properties":{},"geometry":{"type":"LineString","coordinates":[[107.2501,-6.388],[107.2464,-6.3858]]}},{"type":"Feature","properties":{},"geometry":{"type":"LineString","coordinates":[[107.2464,-6.3858],[107.2451,-6.3849]]}},{"type":"Feature","properties":{},"geometry":{"type":"LineString","coordinates":[[107.2451,-6.3849],[107.2336,-6.3775]]}},{"type":"Feature","properties":{},"geometry":{"type":"LineString","coordinates":[[107.2336,-6.3775],[107.2243,-6.3695]]}},{"type":"Feature","properties":{},"geometry":{"type":"LineString","coordinates":[[107.2243,-6.3695],[107.2227,-6.3681]]}},{"type":"Feature","properties":{},"geometry":{"type":"LineString","coordinates":[[107.2163,-6.3621],[107.2217,-6.3672]]}},{"type":"Feature","properties":{},"geometry":{"type":"LineString","coordinates":[[107.4221,-6.5636],[107.4219,-6.5648]]}},{"type":"Feature","properties":{},"geometry":{"type":"LineString","coordinates":[[107.4238,-6.5557],[107.4221,-6.5636]]}},{"type":"Feature","properties":{},"geometry":{"type":"LineString","coordinates":[[107.4243,-6.5477],[107.4238,-6.5557]]}},{"type":"Feature","properties":{},"geometry":{"type":"LineString","coordinates":[[107.424,-6.5431],[107.4243,-6.5477]]}},{"type":"Feature","properties":{},"geometry":{"type":"LineString","coordinates":[[107.4229,-6.5365],[107.424,-6.5431]]}},{"type":"Feature","properties":{},"geometry":{"type":"LineString","coordinates":[[107.4211,-6.5306],[107.4229,-6.5365]]}},{"type":"Feature","properties":{},"geometry":{"type":"LineString","coordinates":[[107.4058,-6.5086],[107.4101,-6.5127]]}},{"type":"Feature","properties":{},"geometry":{"type":"LineString","coordinates":[[107.4044,-6.5074],[107.4058,-6.5086]]}},{"type":"Feature","properties":{},"geometry":{"type":"LineString","coordinates":[[107.3822,-6.495],[107.3972,-6.5026],[107.4044,-6.5074]]}},{"type":"Feature","properties":{},"geometry":{"type":"LineString","coordinates":[[107.361,-6.4794],[107.3677,-6.4851]]}},{"type":"Feature","properties":{},"geometry":{"type":"LineString","coordinates":[[107.3601,-6.4786],[107.361,-6.4794]]}},{"type":"Feature","properties":{},"geometry":{"type":"LineString","coordinates":[[107.3578,-6.4766],[107.3601,-6.4786]]}},{"type":"Feature","properties":{},"geometry":{"type":"LineString","coordinates":[[107.3557,-6.4748],[107.3578,-6.4766]]}},{"type":"Feature","properties":{},"geometry":{"type":"LineString","coordinates":[[107.3528,-6.4723],[107.3557,-6.4748]]}},{"type":"Feature","properties":{},"geometry":{"type":"LineString","coordinates":[[107.352,-6.4717],[107.3528,-6.4723]]}},{"type":"Feature","properties":{},"geometry":{"type":"LineString","coordinates":[[107.3453,-6.466],[107.352,-6.4717]]}},{"type":"Feature","properties":{},"geometry":{"type":"LineString","coordinates":[[107.3405,-6.4619],[107.3453,-6.466]]}},{"type":"Feature","properties":{},"geometry":{"type":"LineString","coordinates":[[107.3343,-6.4566],[107.3405,-6.4619]]}},{"type":"Feature","properties":{},"geometry":{"type":"LineString","coordinates":[[107.3325,-6.455],[107.3343,-6.4566]]}},{"type":"Feature","properties":{},"geometry":{"type":"LineString","coordinates":[[107.325,-6.4485],[107.3325,-6.455]]}},{"type":"Feature","properties":{},"geometry":{"type":"LineString","coordinates":[[107.3231,-6.4469],[107.325,-6.4485]]}},{"type":"Feature","properties":{},"geometry":{"type":"LineString","coordinates":[[107.3118,-6.4372],[107.3231,-6.4469]]}},{"type":"Feature","properties":{},"geometry":{"type":"LineString","coordinates":[[107.3104,-6.436],[107.3118,-6.4372]]}},{"type":"Feature","properties":{},"geometry":{"type":"LineString","coordinates":[[107.308,-6.4339],[107.3104,-6.436]]}},{"type":"Feature","properties":{},"geometry":{"type":"LineString","coordinates":[[107.307,-6.4331],[107.308,-6.4339]]}},{"type":"Feature","properties":{},"geometry":{"type":"LineString","coordinates":[[107.305,-6.4314],[107.307,-6.4331]]}},{"type":"Feature","properties":{},"geometry":{"type":"LineString","coordinates":[[107.3015,-6.4284],[107.3034,-6.43]]}},{"type":"Feature","properties":{},"geometry":{"type":"LineString","coordinates":[[107.2961,-6.4238],[107.3015,-6.4284]]}},{"type":"Feature","properties":{},"geometry":{"type":"LineString","coordinates":[[107.2956,-6.4233],[107.2961,-6.4238]]}},{"type":"Feature","properties":{},"geometry":{"type":"LineString","coordinates":[[107.2936,-6.4216],[107.2956,-6.4233]]}},{"type":"Feature","properties":{},"geometry":{"type":"LineString","coordinates":[[107.2919,-6.4201],[107.2936,-6.4216]]}},{"type":"Feature","properties":{},"geometry":{"type":"LineString","coordinates":[[107.2888,-6.4175],[107.2919,-6.4201]]}},{"type":"Feature","properties":{},"geometry":{"type":"LineString","coordinates":[[107.2883,-6.4171],[107.2888,-6.4175]]}},{"type":"Feature","properties":{},"geometry":{"type":"LineString","coordinates":[[107.2806,-6.4105],[107.2883,-6.4171]]}},{"type":"Feature","properties":{},"geometry":{"type":"LineString","coordinates":[[107.2745,-6.4053],[107.2806,-6.4105]]}},{"type":"Feature","properties":{},"geometry":{"type":"LineString","coordinates":[[107.2742,-6.405],[107.2745,-6.4053]]}},{"type":"Feature","properties":{},"geometry":{"type":"LineString","coordinates":[[107.271,-6.4022],[107.2742,-6.405]]}},{"type":"Feature","properties":{},"geometry":{"type":"LineString","coordinates":[[107.2701,-6.4015],[107.271,-6.4022]]}},{"type":"Feature","properties":{},"geometry":{"type":"LineString","coordinates":[[107.2699,-6.4013],[107.2701,-6.4015]]}},{"type":"Feature","properties":{},"geometry":{"type":"LineString","coordinates":[[107.2629,-6.3958],[107.2699,-6.4013]]}},{"type":"Feature","properties":{},"geometry":{"type":"LineString","coordinates":[[107.2525,-6.3894],[107.2629,-6.3958]]}},{"type":"Feature","properties":{},"geometry":{"type":"LineString","coordinates":[[107.2501,-6.388],[107.2525,-6.3894]]}},{"type":"Feature","properties":{},"geometry":{"type":"LineString","coordinates":[[107.2464,-6.3858],[107.2501,-6.388]]}},{"type":"Feature","properties":{},"geometry":{"type":"LineString","coordinates":[[107.245,-6.385],[107.2464,-6.3858]]}},{"type":"Feature","properties":{},"geometry":{"type":"LineString","coordinates":[[107.2335,-6.3775],[107.245,-6.385]]}},{"type":"Feature","properties":{},"geometry":{"type":"LineString","coordinates":[[107.2242,-6.3695],[107.2335,-6.3775]]}},{"type":"Feature","properties":{},"geometry":{"type":"LineString","coordinates":[[107.2227,-6.3681],[107.2242,-6.3695]]}},{"type":"Feature","properties":{},"geometry":{"type":"LineString","coordinates":[[107.4181,-6.5781],[107.4183,-6.5775]]}},{"type":"Feature","properties":{},"geometry":{"type":"LineString","coordinates":[[107.4183,-6.5775],[107.4181,-6.5781]]}},{"type":"Feature","properties":{},"geometry":{"type":"LineString","coordinates":[[107.4135,-6.5879],[107.4127,-6.5893]]}},{"type":"Feature","properties":{},"geometry":{"type":"LineString","coordinates":[[107.4156,-6.5838],[107.4151,-6.5848]]}},{"type":"Feature","properties":{},"geometry":{"type":"LineString","coordinates":[[107.4127,-6.5893],[107.4135,-6.5879]]}},{"type":"Feature","properties":{},"geometry":{"type":"LineString","coordinates":[[107.4151,-6.5849],[107.4156,-6.5838]]}},{"type":"Feature","properties":{},"geometry":{"type":"LineString","coordinates":[[107.3985,-6.6467],[107.3996,-6.6525]]}},{"type":"Feature","properties":{},"geometry":{"type":"LineString","coordinates":[[107.3983,-6.6457],[107.3985,-6.6467]]}},{"type":"Feature","properties":{},"geometry":{"type":"LineString","coordinates":[[107.3976,-6.6422],[107.3983,-6.6457]]}},{"type":"Feature","properties":{},"geometry":{"type":"LineString","coordinates":[[107.3971,-6.6392],[107.3976,-6.6422]]}},{"type":"Feature","properties":{},"geometry":{"type":"LineString","coordinates":[[107.3967,-6.6373],[107.3971,-6.6392]]}},{"type":"Feature","properties":{},"geometry":{"type":"LineString","coordinates":[[107.3963,-6.6329],[107.3967,-6.6373]]}},{"type":"Feature","properties":{},"geometry":{"type":"LineString","coordinates":[[107.3962,-6.6316],[107.3963,-6.6329]]}},{"type":"Feature","properties":{},"geometry":{"type":"LineString","coordinates":[[107.3962,-6.6302],[107.3962,-6.6316]]}},{"type":"Feature","properties":{},"geometry":{"type":"LineString","coordinates":[[107.3962,-6.6298],[107.3962,-6.6302]]}},{"type":"Feature","properties":{},"geometry":{"type":"LineString","coordinates":[[107.3972,-6.6197],[107.3962,-6.6298]]}},{"type":"Feature","properties":{},"geometry":{"type":"LineString","coordinates":[[107.3974,-6.6189],[107.3972,-6.6197]]}},{"type":"Feature","properties":{},"geometry":{"type":"LineString","coordinates":[[107.4062,-6.5992],[107.4025,-6.6051]]}},{"type":"Feature","properties":{},"geometry":{"type":"LineString","coordinates":[[107.3997,-6.6525],[107.3985,-6.6467]]}},{"type":"Feature","properties":{},"geometry":{"type":"LineString","coordinates":[[107.3985,-6.6467],[107.3983,-6.6457]]}},{"type":"Feature","properties":{},"geometry":{"type":"LineString","coordinates":[[107.3983,-6.6457],[107.3977,-6.6422]]}},{"type":"Feature","properties":{},"geometry":{"type":"LineString","coordinates":[[107.3977,-6.6422],[107.3971,-6.6392]]}},{"type":"Feature","properties":{},"geometry":{"type":"LineString","coordinates":[[107.3971,-6.6392],[107.3968,-6.6373]]}},{"type":"Feature","properties":{},"geometry":{"type":"LineString","coordinates":[[107.3968,-6.6373],[107.3963,-6.6329]]}},{"type":"Feature","properties":{},"geometry":{"type":"LineString","coordinates":[[107.3963,-6.6329],[107.3963,-6.6316]]}},{"type":"Feature","properties":{},"geometry":{"type":"LineString","coordinates":[[107.3963,-6.6316],[107.3962,-6.6302]]}},{"type":"Feature","properties":{},"geometry":{"type":"LineString","coordinates":[[107.3962,-6.6302],[107.3962,-6.6298]]}},{"type":"Feature","properties":{},"geometry":{"type":"LineString","coordinates":[[107.3962,-6.6298],[107.3972,-6.6197]]}},{"type":"Feature","properties":{},"geometry":{"type":"LineString","coordinates":[[107.3972,-6.6197],[107.3974,-6.6189]]}},{"type":"Feature","properties":{},"geometry":{"type":"LineString","coordinates":[[107.4025,-6.6051],[107.4062,-6.5992]]}},{"type":"Feature","properties":{},"geometry":{"type":"LineString","coordinates":[[107.4119,-6.7318],[107.413,-6.734]]}},{"type":"Feature","properties":{},"geometry":{"type":"LineString","coordinates":[[107.4048,-6.6908],[107.4048,-6.6925]]}},{"type":"Feature","properties":{},"geometry":{"type":"LineString","coordinates":[[107.4047,-6.6885],[107.4048,-6.6908]]}},{"type":"Feature","properties":{},"geometry":{"type":"LineString","coordinates":[[107.4046,-6.6861],[107.4047,-6.6885]]}},{"type":"Feature","properties":{},"geometry":{"type":"LineString","coordinates":[[107.404,-6.6761],[107.4046,-6.6861]]}},{"type":"Feature","properties":{},"geometry":{"type":"LineString","coordinates":[[107.4039,-6.6754],[107.404,-6.6761]]}},{"type":"Feature","properties":{},"geometry":{"type":"LineString","coordinates":[[107.4039,-6.6751],[107.4039,-6.6754]]}},{"type":"Feature","properties":{},"geometry":{"type":"LineString","coordinates":[[107.4033,-6.6712],[107.4039,-6.6751]]}},{"type":"Feature","properties":{},"geometry":{"type":"LineString","coordinates":[[107.4041,-6.6761],[107.404,-6.6754]]}},{"type":"Feature","properties":{},"geometry":{"type":"LineString","coordinates":[[107.413,-6.734],[107.4119,-6.7318]]}},{"type":"Feature","properties":{},"geometry":{"type":"LineString","coordinates":[[107.4049,-6.6925],[107.4048,-6.6908]]}},{"type":"Feature","properties":{},"geometry":{"type":"LineString","coordinates":[[107.4048,-6.6908],[107.4048,-6.6885]]}},{"type":"Feature","properties":{},"geometry":{"type":"LineString","coordinates":[[107.4048,-6.6885],[107.4047,-6.6861]]}},{"type":"Feature","properties":{},"geometry":{"type":"LineString","coordinates":[[107.4047,-6.6861],[107.4041,-6.6761]]}},{"type":"Feature","properties":{},"geometry":{"type":"LineString","coordinates":[[107.404,-6.6754],[107.4039,-6.6751]]}},{"type":"Feature","properties":{},"geometry":{"type":"LineString","coordinates":[[107.4039,-6.6751],[107.4033,-6.6712]]}},{"type":"Feature","properties":{},"geometry":{"type":"LineString","coordinates":[[107.4033,-6.6712],[107.4027,-6.6681]]}},{"type":"Feature","properties":{},"geometry":{"type":"LineString","coordinates":[[107.4027,-6.6681],[107.4025,-6.6671]]}},{"type":"Feature","properties":{},"geometry":{"type":"LineString","coordinates":[[107.4025,-6.6671],[107.4015,-6.6618]]}},{"type":"Feature","properties":{},"geometry":{"type":"LineString","coordinates":[[107.4015,-6.6618],[107.4012,-6.6604]]}},{"type":"Feature","properties":{},"geometry":{"type":"LineString","coordinates":[[107.4012,-6.6604],[107.4011,-6.6597]]}},{"type":"Feature","properties":{},"geometry":{"type":"LineString","coordinates":[[107.4011,-6.6597],[107.4008,-6.6581]]}},{"type":"Feature","properties":{},"geometry":{"type":"LineString","coordinates":[[107.4008,-6.6581],[107.3998,-6.6533]]}},{"type":"Feature","properties":{},"geometry":{"type":"LineString","coordinates":[[107.3998,-6.6533],[107.3997,-6.6525]]}},{"type":"Feature","properties":{},"geometry":{"type":"LineString","coordinates":[[107.4027,-6.6681],[107.4033,-6.6712]]}},{"type":"Feature","properties":{},"geometry":{"type":"LineString","coordinates":[[107.4025,-6.6671],[107.4027,-6.6681]]}},{"type":"Feature","properties":{},"geometry":{"type":"LineString","coordinates":[[107.4014,-6.6619],[107.4025,-6.6671]]}},{"type":"Feature","properties":{},"geometry":{"type":"LineString","coordinates":[[107.4012,-6.6605],[107.4014,-6.6619]]}},{"type":"Feature","properties":{},"geometry":{"type":"LineString","coordinates":[[107.401,-6.6597],[107.4012,-6.6605]]}},{"type":"Feature","properties":{},"geometry":{"type":"LineString","coordinates":[[107.4007,-6.6581],[107.401,-6.6597]]}},{"type":"Feature","properties":{},"geometry":{"type":"LineString","coordinates":[[107.3998,-6.6534],[107.4007,-6.6581]]}},{"type":"Feature","properties":{},"geometry":{"type":"LineString","coordinates":[[107.3996,-6.6525],[107.3998,-6.6534]]}},{"type":"Feature","properties":{},"geometry":{"type":"LineString","coordinates":[[107.4186,-6.7455],[107.4204,-6.7491]]}},{"type":"Feature","properties":{},"geometry":{"type":"LineString","coordinates":[[107.4204,-6.7491],[107.4187,-6.7455]]}},{"type":"Feature","properties":{},"geometry":{"type":"LineString","coordinates":[[107.4278,-6.7641],[107.4275,-6.7635]]}},{"type":"Feature","properties":{},"geometry":{"type":"LineString","coordinates":[[107.4275,-6.7635],[107.4265,-6.7616]]}},{"type":"Feature","properties":{},"geometry":{"type":"LineString","coordinates":[[107.4275,-6.7636],[107.4277,-6.7641]]}},{"type":"Feature","properties":{},"geometry":{"type":"LineString","coordinates":[[107.4265,-6.7616],[107.4275,-6.7636]]}},{"type":"Feature","properties":{},"geometry":{"type":"LineString","coordinates":[[107.463,-6.8079],[107.4697,-6.8112]]}},{"type":"Feature","properties":{},"geometry":{"type":"LineString","coordinates":[[107.462,-6.8075],[107.463,-6.8079]]}},{"type":"Feature","properties":{},"geometry":{"type":"LineString","coordinates":[[107.4513,-6.8018],[107.4563,-6.8048]]}},{"type":"Feature","properties":{},"geometry":{"type":"LineString","coordinates":[[107.4457,-6.7966],[107.4513,-6.8018]]}},{"type":"Feature","properties":{},"geometry":{"type":"LineString","coordinates":[[107.4434,-6.7937],[107.4457,-6.7966]]}},{"type":"Feature","properties":{},"geometry":{"type":"LineString","coordinates":[[107.4425,-6.7924],[107.4434,-6.7937]]}},{"type":"Feature","properties":{},"geometry":{"type":"LineString","coordinates":[[107.442,-6.7916],[107.4425,-6.7924]]}},{"type":"Feature","properties":{},"geometry":{"type":"LineString","coordinates":[[107.4413,-6.7906],[107.442,-6.7916]]}},{"type":"Feature","properties":{},"geometry":{"type":"LineString","coordinates":[[107.4401,-6.7885],[107.4413,-6.7906]]}},{"type":"Feature","properties":{},"geometry":{"type":"LineString","coordinates":[[107.4391,-6.7868],[107.4401,-6.7885]]}},{"type":"Feature","properties":{},"geometry":{"type":"LineString","coordinates":[[107.4388,-6.7862],[107.4391,-6.7868]]}},{"type":"Feature","properties":{},"geometry":{"type":"LineString","coordinates":[[107.4379,-6.7845],[107.4388,-6.7862]]}},{"type":"Feature","properties":{},"geometry":{"type":"LineString","coordinates":[[107.4365,-6.7821],[107.4379,-6.7845]]}},{"type":"Feature","properties":{},"geometry":{"type":"LineString","coordinates":[[107.4364,-6.7818],[107.4365,-6.7821]]}},{"type":"Feature","properties":{},"geometry":{"type":"LineString","coordinates":[[107.4697,-6.8112],[107.463,-6.8079]]}},{"type":"Feature","properties":{},"geometry":{"type":"LineString","coordinates":[[107.463,-6.8079],[107.462,-6.8074]]}},{"type":"Feature","properties":{},"geometry":{"type":"LineString","coordinates":[[107.462,-6.8074],[107.4563,-6.8048]]}},{"type":"Feature","properties":{},"geometry":{"type":"LineString","coordinates":[[107.4514,-6.8018],[107.4457,-6.7966]]}},{"type":"Feature","properties":{},"geometry":{"type":"LineString","coordinates":[[107.4457,-6.7966],[107.4434,-6.7937]]}},{"type":"Feature","properties":{},"geometry":{"type":"LineString","coordinates":[[107.4434,-6.7937],[107.4425,-6.7924]]}},{"type":"Feature","properties":{},"geometry":{"type":"LineString","coordinates":[[107.4425,-6.7924],[107.442,-6.7916]]}},{"type":"Feature","properties":{},"geometry":{"type":"LineString","coordinates":[[107.442,-6.7916],[107.4414,-6.7906]]}},{"type":"Feature","properties":{},"geometry":{"type":"LineString","coordinates":[[107.4414,-6.7906],[107.4401,-6.7884]]}},{"type":"Feature","properties":{},"geometry":{"type":"LineString","coordinates":[[107.4401,-6.7884],[107.4392,-6.7868]]}},{"type":"Feature","properties":{},"geometry":{"type":"LineString","coordinates":[[107.4392,-6.7868],[107.4388,-6.7861]]}},{"type":"Feature","properties":{},"geometry":{"type":"LineString","coordinates":[[107.4388,-6.7861],[107.4379,-6.7845]]}},{"type":"Feature","properties":{},"geometry":{"type":"LineString","coordinates":[[107.4379,-6.7845],[107.4366,-6.7821]]}},{"type":"Feature","properties":{},"geometry":{"type":"LineString","coordinates":[[107.4366,-6.7821],[107.4364,-6.7818]]}},{"type":"Feature","properties":{},"geometry":{"type":"LineString","coordinates":[[107.2163,-6.3622],[107.2224,-6.3678]]}},{"type":"Feature","properties":{},"geometry":{"type":"LineString","coordinates":[[107.2217,-6.3672],[107.2163,-6.3621]]}},{"type":"Feature","properties":{},"geometry":{"type":"LineString","coordinates":[[107.7095,-6.9665],[107.7148,-6.964]]}},{"type":"Feature","properties":{},"geometry":{"type":"LineString","coordinates":[[107.2227,-6.3681],[107.2217,-6.3672]]}},{"type":"Feature","properties":{},"geometry":{"type":"LineString","coordinates":[[107.2163,-6.3622],[107.2224,-6.3678]]}},{"type":"Feature","properties":{},"geometry":{"type":"LineString","coordinates":[[107.2158,-6.3618],[107.2163,-6.3622]]}},{"type":"Feature","properties":{},"geometry":{"type":"LineString","coordinates":[[107.2163,-6.3621],[107.2159,-6.3617]]}},{"type":"Feature","properties":{},"geometry":{"type":"LineString","coordinates":[[106.8816,-6.2463],[106.8845,-6.2457]]}},{"type":"Feature","properties":{},"geometry":{"type":"LineString","coordinates":[[106.8845,-6.2456],[106.8816,-6.2462]]}},{"type":"Feature","properties":{},"geometry":{"type":"LineString","coordinates":[[107.7148,-6.964],[107.7188,-6.9613]]}},{"type":"Feature","properties":{},"geometry":{"type":"LineString","coordinates":[[107.7188,-6.9613],[107.7146,-6.9637]]}},{"type":"Feature","properties":{},"geometry":{"type":"LineString","coordinates":[[107.4986,-6.8436],[107.4941,-6.8394]]}},{"type":"Feature","properties":{},"geometry":{"type":"LineString","coordinates":[[107.4941,-6.8395],[107.4986,-6.8436]]}},{"type":"Feature","properties":{},"geometry":{"type":"LineString","coordinates":[[107.6211,-6.962],[107.6239,-6.9631]]}},{"type":"Feature","properties":{},"geometry":{"type":"LineString","coordinates":[[107.6239,-6.9631],[107.6211,-6.9619]]}},{"type":"Feature","properties":{},"geometry":{"type":"LineString","coordinates":[[107.6211,-6.9619],[107.6209,-6.9618]]}},{"type":"Feature","properties":{},"geometry":{"type":"LineString","coordinates":[[107.6208,-6.9618],[107.6211,-6.962]]}},{"type":"Feature","properties":{},"geometry":{"type":"LineString","coordinates":[[107.2231,-6.3685],[107.2238,-6.3691]]}},{"type":"Feature","properties":{},"geometry":{"type":"LineString","coordinates":[[106.9893,-6.2531],[107.0189,-6.2636]]}},{"type":"Feature","properties":{},"geometry":{"type":"LineString","coordinates":[[107.0189,-6.2636],[106.9893,-6.253]]}},{"type":"Feature","properties":{},"geometry":{"type":"LineString","coordinates":[[107.305,-6.4313],[107.3035,-6.43]]}},{"type":"Feature","properties":{},"geometry":{"type":"LineString","coordinates":[[107.3034,-6.43],[107.305,-6.4314]]}},{"type":"Feature","properties":{},"geometry":{"type":"LineString","coordinates":[[107.3822,-6.4949],[107.3736,-6.4897]]}},{"type":"Feature","properties":{},"geometry":{"type":"LineString","coordinates":[[107.3735,-6.4898],[107.3822,-6.495]]}},{"type":"Feature","properties":{},"geometry":{"type":"LineString","coordinates":[[107.3677,-6.4851],[107.3735,-6.4898]]}},{"type":"Feature","properties":{},"geometry":{"type":"LineString","coordinates":[[107.3736,-6.4897],[107.3677,-6.4851]]}},{"type":"Feature","properties":{},"geometry":{"type":"LineString","coordinates":[[107.4143,-6.5177],[107.4102,-6.5126]]}},{"type":"Feature","properties":{},"geometry":{"type":"LineString","coordinates":[[107.4101,-6.5127],[107.4143,-6.5177]]}},{"type":"Feature","properties":{},"geometry":{"type":"LineString","coordinates":[[107.4986,-6.8436],[107.4988,-6.8438]]}},{"type":"Feature","properties":{},"geometry":{"type":"LineString","coordinates":[[107.4988,-6.8437],[107.4986,-6.8436]]}},{"type":"Feature","properties":{},"geometry":{"type":"LineString","coordinates":[[107.4986,-6.8436],[107.4941,-6.8394]]}},{"type":"Feature","properties":{},"geometry":{"type":"LineString","coordinates":[[106.922,-6.2585],[106.9187,-6.2587]]}},{"type":"Feature","properties":{},"geometry":{"type":"LineString","coordinates":[[106.9187,-6.2587],[106.922,-6.2586]]}},{"type":"Feature","properties":{},"geometry":{"type":"LineString","coordinates":[[106.8904,-6.2438],[106.8912,-6.2435]]}},{"type":"Feature","properties":{},"geometry":{"type":"LineString","coordinates":[[106.8912,-6.2435],[106.8904,-6.2438]]}},{"type":"Feature","properties":{},"geometry":{"type":"LineString","coordinates":[[107.4941,-6.8395],[107.4986,-6.8436]]}},{"type":"Feature","properties":{},"geometry":{"type":"LineString","coordinates":[[107.2224,-6.3678],[107.2227,-6.3681]]}},{"type":"Feature","properties":{},"geometry":{"type":"LineString","coordinates":[[107.7049,-6.969],[107.7072,-6.9677]]}},{"type":"Feature","properties":{},"geometry":{"type":"LineString","coordinates":[[107.7146,-6.9637],[107.7112,-6.9656]]}},{"type":"Feature","properties":{},"geometry":{"type":"LineString","coordinates":[[107.7147,-6.9638],[107.7181,-6.9618]]}},{"type":"Feature","properties":{},"geometry":{"type":"LineString","coordinates":[[107.7147,-6.9638],[107.7112,-6.9656]]}},{"type":"Feature","properties":{},"geometry":{"type":"LineString","coordinates":[[107.7112,-6.9656],[107.7089,-6.9667]]}},{"type":"Feature","properties":{},"geometry":{"type":"LineString","coordinates":[[107.7081,-6.9672],[107.7095,-6.9665]]}},{"type":"Feature","properties":{},"geometry":{"type":"LineString","coordinates":[[107.7064,-6.9681],[107.7049,-6.969]]}},{"type":"Feature","properties":{},"geometry":{"type":"LineString","coordinates":[[107.7072,-6.9677],[107.7081,-6.9672]]}}]}