{"type":"FeatureCollection","features":[{"type":"Feature","properties":{"name":"Alor Setar","name_en":"Alor Setar","name_zh":"亚罗士打"},"geometry":{"type":"Point","coordinates":[100.3696532,6.1130166]}},{"type":"Feature","properties":{"name":"Anak Bukit","name_en":"Anak Bukit","name_zh":"安南武吉"},"geometry":{"type":"Point","coordinates":[100.3748721,6.1832936]}},{"type":"Feature","properties":{"name":"Arau","name_en":"","name_zh":""},"geometry":{"type":"Point","coordinates":[100.26831480000001,6.4319017]}},{"type":"Feature","properties":{"name":"Bagan Serai","name_en":"Bagan Serai","name_zh":"峇眼色海"},"geometry":{"type":"Point","coordinates":[100.527399,5.028472]}},{"type":"Feature","properties":{"name":"Bandar Tasik Selatan","name_en":"Bandar Tasik Selatan","name_zh":"南湖镇"},"geometry":{"type":"Point","coordinates":[101.71099430000001,3.0762506]}},{"type":"Feature","properties":{"name":"Batang Melaka","name_en":"","name_zh":"巴登马六甲"},"geometry":{"type":"Point","coordinates":[102.415531,2.4738636]}},{"type":"Feature","properties":{"name":"Batu Gajah","name_en":"","name_zh":"华都牙也"},"geometry":{"type":"Point","coordinates":[101.04931110000001,4.4599293]}},{"type":"Feature","properties":{"name":"Bukit Mertajam","name_en":"Bukit Mertajam","name_zh":"大山脚"},"geometry":{"type":"Point","coordinates":[100.4479491,5.3662814]}},{"type":"Feature","properties":{"name":"Butterworth","name_en":"Butterworth","name_zh":"北海"},"geometry":{"type":"Point","coordinates":[100.36643930000001,5.393364]}},{"type":"Feature","properties":{"name":"Gemas","name_en":"Gemas","name_zh":"金马士"},"geometry":{"type":"Point","coordinates":[102.6138167,2.5795285]}},{"type":"Feature","properties":{"name":"Gurun","name_en":"Gurun","name_zh":"莪仑"},"geometry":{"type":"Point","coordinates":[100.47793390000001,5.8246531]}},{"type":"Feature","properties":{"name":"Ipoh","name_en":"Ipoh","name_zh":"怡保"},"geometry":{"type":"Point","coordinates":[101.0730766,4.5975474]}},{"type":"Feature","properties":{"name":"KB13 Seremban","name_en":"Seremban","name_zh":"芙蓉"},"geometry":{"type":"Point","coordinates":[101.9404831,2.7188285]}},{"type":"Feature","properties":{"name":"KB17 Pulau Sebang/Tampin","name_en":"Pulau Sebang/Tampin","name_zh":"普罗士邦/淡边"},"geometry":{"type":"Point","coordinates":[102.2261457,2.4635084]}},{"type":"Feature","properties":{"name":"KL Sentral (KTM)","name_en":"KL Sentral (KTM)","name_zh":"吉隆坡中央（KTM）"},"geometry":{"type":"Point","coordinates":[101.6861526,3.1348342]}},{"type":"Feature","properties":{"name":"Kajang (KTM)","name_en":"Kajang (KTM)","name_zh":"加影（马来亚铁道）"},"geometry":{"type":"Point","coordinates":[101.7904912,2.9822627]}},{"type":"Feature","properties":{"name":"Kampar","name_en":"Kampar","name_zh":"金宝"},"geometry":{"type":"Point","coordinates":[101.153511,4.3026728]}},{"type":"Feature","properties":{"name":"Kepong Sentral","name_en":"Kepong Sentral","name_zh":"甲洞中央"},"geometry":{"type":"Point","coordinates":[101.6285076,3.2086822]}},{"type":"Feature","properties":{"name":"Kuala Kangsar","name_en":"Kuala Kangsar","name_zh":"江沙"},"geometry":{"type":"Point","coordinates":[100.93186410000001,4.7763014]}},{"type":"Feature","properties":{"name":"Kuala Lumpur","name_en":"Kuala Lumpur","name_zh":"吉隆坡"},"geometry":{"type":"Point","coordinates":[101.69358430000001,3.1395792]}},{"type":"Feature","properties":{"name":"Nibong Tebal","name_en":"Nibong Tebal","name_zh":"高渊"},"geometry":{"type":"Point","coordinates":[100.4796515,5.1694665]}},{"type":"Feature","properties":{"name":"Padang Besar","name_en":"Padang Besar","name_zh":"巴东勿刹"},"geometry":{"type":"Point","coordinates":[100.320705,6.6631518]}},{"type":"Feature","properties":{"name":"Padang Rengas","name_en":"Padang Rengas","name_zh":"硝山"},"geometry":{"type":"Point","coordinates":[100.85750820000001,4.7780665]}},{"type":"Feature","properties":{"name":"Parit Buntar","name_en":"Parit Buntar","name_zh":"巴里文打"},"geometry":{"type":"Point","coordinates":[100.4861793,5.1304755]}},{"type":"Feature","properties":{"name":"Rawang","name_en":"Rawang","name_zh":"万挠"},"geometry":{"type":"Point","coordinates":[101.5747699,3.3194651]}},{"type":"Feature","properties":{"name":"Slim River","name_en":"Slim River","name_zh":"仕林河"},"geometry":{"type":"Point","coordinates":[101.4022678,3.8268296]}},{"type":"Feature","properties":{"name":"Sungai Buloh (KTM)","name_en":"Sungai Buloh (KTM)","name_zh":"双溪毛糯（马来亚铁道）"},"geometry":{"type":"Point","coordinates":[101.5800355,3.2061782]}},{"type":"Feature","properties":{"name":"Sungai Petani","name_en":"","name_zh":""},"geometry":{"type":"Point","coordinates":[100.4900479,5.642871]}},{"type":"Feature","properties":{"name":"Sungai Siput","name_en":"","name_zh":"和丰"},"geometry":{"type":"Point","coordinates":[101.0712132,4.8185614]}},{"type":"Feature","properties":{"name":"Sungkai","name_en":"Sungkai","name_zh":"宋溪"},"geometry":{"type":"Point","coordinates":[101.3014783,4.0059566]}},{"type":"Feature","properties":{"name":"Taiping","name_en":"Taiping","name_zh":"太平"},"geometry":{"type":"Point","coordinates":[100.7321605,4.8529505]}},{"type":"Feature","properties":{"name":"Tanjung Malim","name_en":"Tanjung Malim","name_zh":"丹绒马林"},"geometry":{"type":"Point","coordinates":[101.51827650000001,3.6847714]}},{"type":"Feature","properties":{"name":"Tapah Road","name_en":"Tapah Road","name_zh":"打巴路"},"geometry":{"type":"Point","coordinates":[101.189308,4.1740713]}},{"type":"Feature","properties":{"name":"Tasek Gelugor","name_en":"Tasek Gelugor","name_zh":"打昔汝莪"},"geometry":{"type":"Point","coordinates":[100.4980002,5.4821102]}},{"type":"Feature","properties":{"name":"Bekok","name_en":"Bekok","name_zh":"彼咯"},"geometry":{"type":"Point","coordinates":[103.1290896,2.296843]}},{"type":"Feature","properties":{"name":"Johor Bahru Sentral","name_en":"Johor Bahru Sentral","name_zh":"新山中央车站"},"geometry":{"type":"Point","coordinates":[103.7649463,1.4625482]}},{"type":"Feature","properties":{"name":"Kempas Baru","name_en":"Kempas Baru","name_zh":"甘拔士峇鲁"},"geometry":{"type":"Point","coordinates":[103.7234612,1.535764]}},{"type":"Feature","properties":{"name":"Kluang","name_en":"","name_zh":"居銮"},"geometry":{"type":"Point","coordinates":[103.31658010000001,2.0353631]}},{"type":"Feature","properties":{"name":"Kulai","name_en":"Kulai","name_zh":"古来"},"geometry":{"type":"Point","coordinates":[103.5981079,1.6642439]}},{"type":"Feature","properties":{"name":"Labis","name_en":"","name_zh":"拉美士"},"geometry":{"type":"Point","coordinates":[103.0198094,2.3834164]}},{"type":"Feature","properties":{"name":"Layang-Layang","name_en":"Layang-Layang","name_zh":"拉央拉央"},"geometry":{"type":"Point","coordinates":[103.4775464,1.8118664]}},{"type":"Feature","properties":{"name":"Paloh","name_en":"","name_zh":"巴罗"},"geometry":{"type":"Point","coordinates":[103.1898981,2.1908834]}},{"type":"Feature","properties":{"name":"Rengam","name_en":"","name_zh":"令金"},"geometry":{"type":"Point","coordinates":[103.40400120000001,1.8840085]}},{"type":"Feature","properties":{"name":"Segamat","name_en":"Segamat","name_zh":"昔加末"},"geometry":{"type":"Point","coordinates":[102.8132016,2.5074495]}}]}