{"type":"FeatureCollection","features":[{"type":"Feature","properties":{"name":"가남","name_en":"Ganam","name_zh":"加南"},"geometry":{"type":"Point","coordinates":[127.5354382,37.1974167]}},{"type":"Feature","properties":{"name":"감곡장호원","name_en":"Gamgok Janghowon","name_zh":"甘谷長湖院"},"geometry":{"type":"Point","coordinates":[127.63561980000001,37.1270431]}},{"type":"Feature","properties":{"name":"강릉","name_en":"Gangneung","name_zh":"江陵"},"geometry":{"type":"Point","coordinates":[128.8993979,37.76452]}},{"type":"Feature","properties":{"name":"경주","name_en":"Gyeongju","name_zh":"慶州"},"geometry":{"type":"Point","coordinates":[129.1389632,35.7982689]}},{"type":"Feature","properties":{"name":"계룡","name_en":"Gyeryong","name_zh":"鷄龍"},"geometry":{"type":"Point","coordinates":[127.26653130000001,36.2724063]}},{"type":"Feature","properties":{"name":"곡성","name_en":"Gokseong","name_zh":"谷城"},"geometry":{"type":"Point","coordinates":[127.3044579,35.2834557]}},{"type":"Feature","properties":{"name":"공주","name_en":"Gongju","name_zh":"公州"},"geometry":{"type":"Point","coordinates":[127.09663680000001,36.3322371]}},{"type":"Feature","properties":{"name":"광명","name_en":"Gwangmyeong","name_zh":"光明"},"geometry":{"type":"Point","coordinates":[126.88469780000001,37.41638]}},{"type":"Feature","properties":{"name":"광주송정","name_en":"Gwangju Songjeong","name_zh":"光州松汀"},"geometry":{"type":"Point","coordinates":[126.79010980000001,35.1377072]}},{"type":"Feature","properties":{"name":"구례구","name_en":"Guryegu","name_zh":"求禮口"},"geometry":{"type":"Point","coordinates":[127.4519666,35.1634776]}},{"type":"Feature","properties":{"name":"김제","name_en":"Gimje","name_zh":"金堤"},"geometry":{"type":"Point","coordinates":[126.9042184,35.7931619]}},{"type":"Feature","properties":{"name":"김천(구미)","name_en":"Gimcheon(Gumi)","name_zh":"金泉(龜尾)"},"geometry":{"type":"Point","coordinates":[128.1806889,36.1130256]}},{"type":"Feature","properties":{"name":"나주","name_en":"Naju","name_zh":"羅州"},"geometry":{"type":"Point","coordinates":[126.71748470000001,35.0139274]}},{"type":"Feature","properties":{"name":"남원","name_en":"Namwon","name_zh":"南原"},"geometry":{"type":"Point","coordinates":[127.3613332,35.4112509]}},{"type":"Feature","properties":{"name":"논산","name_en":"Nonsan","name_zh":"論山"},"geometry":{"type":"Point","coordinates":[127.0928492,36.2069077]}},{"type":"Feature","properties":{"name":"단양","name_en":"Danyang","name_zh":"丹陽"},"geometry":{"type":"Point","coordinates":[128.34404,36.9731041]}},{"type":"Feature","properties":{"name":"대전","name_en":"Daejeon","name_zh":"大田"},"geometry":{"type":"Point","coordinates":[127.43464820000001,36.3322464]}},{"type":"Feature","properties":{"name":"동대구","name_en":"Dongdaegu","name_zh":"東大邱"},"geometry":{"type":"Point","coordinates":[128.6283056,35.8791851]}},{"type":"Feature","properties":{"name":"동탄","name_en":"Dongtan","name_zh":"東灘"},"geometry":{"type":"Point","coordinates":[127.09557640000001,37.2003594]}},{"type":"Feature","properties":{"name":"동해","name_en":"Donghae","name_zh":"東海"},"geometry":{"type":"Point","coordinates":[129.1226016,37.4975753]}},{"type":"Feature","properties":{"name":"둔내","name_en":"Dunnae","name_zh":"屯內"},"geometry":{"type":"Point","coordinates":[128.2212714,37.5100212]}},{"type":"Feature","properties":{"name":"마산","name_en":"Masan","name_zh":"馬山"},"geometry":{"type":"Point","coordinates":[128.576728,35.2363635]}},{"type":"Feature","properties":{"name":"만종","name_en":"Manjong","name_zh":"萬鐘"},"geometry":{"type":"Point","coordinates":[127.89311160000001,37.353949]}},{"type":"Feature","properties":{"name":"목포","name_en":"Mokpo","name_zh":"木浦"},"geometry":{"type":"Point","coordinates":[126.3876448,34.7921339]}},{"type":"Feature","properties":{"name":"묵호","name_en":"Mukho","name_zh":"墨湖"},"geometry":{"type":"Point","coordinates":[129.1082108,37.5461786]}},{"type":"Feature","properties":{"name":"문경","name_en":"Mungyeong","name_zh":"聞慶"},"geometry":{"type":"Point","coordinates":[128.110201,36.7202622]}},{"type":"Feature","properties":{"name":"밀양","name_en":"Miryang","name_zh":"密陽"},"geometry":{"type":"Point","coordinates":[128.7714177,35.4748507]}},{"type":"Feature","properties":{"name":"부발","name_en":"Bubal","name_zh":"夫鉢"},"geometry":{"type":"Point","coordinates":[127.49032840000001,37.2604023]}},{"type":"Feature","properties":{"name":"부산","name_en":"Busan","name_zh":"釜山"},"geometry":{"type":"Point","coordinates":[129.0425868,35.1155532]}},{"type":"Feature","properties":{"name":"부전","name_en":"Bujeon","name_zh":"釜田"},"geometry":{"type":"Point","coordinates":[129.06010740000002,35.1646008]}},{"type":"Feature","properties":{"name":"살미","name_en":"Salmi","name_zh":"乷味"},"geometry":{"type":"Point","coordinates":[127.9601789,36.9022446]}},{"type":"Feature","properties":{"name":"상봉","name_en":"Sangbong","name_zh":"上鳳"},"geometry":{"type":"Point","coordinates":[127.0856555,37.5970314]}},{"type":"Feature","properties":{"name":"서대전","name_en":"Seodaejeon","name_zh":"西大田"},"geometry":{"type":"Point","coordinates":[127.403122,36.3224768]}},{"type":"Feature","properties":{"name":"서울","name_en":"Seoul","name_zh":"首尔"},"geometry":{"type":"Point","coordinates":[126.9707793,37.5545547]}},{"type":"Feature","properties":{"name":"서원주","name_en":"Seowonju","name_zh":"西原州"},"geometry":{"type":"Point","coordinates":[127.8393953,37.3485297]}},{"type":"Feature","properties":{"name":"수서","name_en":"Suseo","name_zh":"水西"},"geometry":{"type":"Point","coordinates":[127.1046888,37.485099]}},{"type":"Feature","properties":{"name":"수안보온천","name_en":"Suanbo Oncheon","name_zh":"水安保溫泉"},"geometry":{"type":"Point","coordinates":[128.0050118,36.8416922]}},{"type":"Feature","properties":{"name":"수원","name_en":"Suwon","name_zh":"水原"},"geometry":{"type":"Point","coordinates":[126.9999102,37.2658097]}},{"type":"Feature","properties":{"name":"순천","name_en":"Suncheon","name_zh":"順天"},"geometry":{"type":"Point","coordinates":[127.50405970000001,34.9458107]}},{"type":"Feature","properties":{"name":"안동","name_en":"Andong","name_zh":"安東"},"geometry":{"type":"Point","coordinates":[128.6749254,36.5741438]}},{"type":"Feature","properties":{"name":"앙성온천","name_en":"Angseongoncheon","name_zh":"仰城溫泉"},"geometry":{"type":"Point","coordinates":[127.78694890000001,37.0920714]}},{"type":"Feature","properties":{"name":"양평","name_en":"Yangpyeong","name_zh":"楊平"},"geometry":{"type":"Point","coordinates":[127.49189720000001,37.4928474]}},{"type":"Feature","properties":{"name":"여수엑스포","name_en":"Yeosu EXPO","name_zh":"麗水엑스포"},"geometry":{"type":"Point","coordinates":[127.7492394,34.7555141]}},{"type":"Feature","properties":{"name":"여천","name_en":"Yeocheon","name_zh":"麗川"},"geometry":{"type":"Point","coordinates":[127.66444960000001,34.7794624]}},{"type":"Feature","properties":{"name":"연풍","name_en":"Yeonpung","name_zh":"延豊"},"geometry":{"type":"Point","coordinates":[128.01830180000002,36.7864342]}},{"type":"Feature","properties":{"name":"영덕","name_en":"Yeongdeok station","name_zh":"盈德"},"geometry":{"type":"Point","coordinates":[129.37832880000002,36.4102544]}},{"type":"Feature","properties":{"name":"영등포","name_en":"Yeongdeungpo","name_zh":"永登浦"},"geometry":{"type":"Point","coordinates":[126.9069345,37.515363]}},{"type":"Feature","properties":{"name":"영주","name_en":"Yeongju","name_zh":"榮州"},"geometry":{"type":"Point","coordinates":[128.625578,36.8109445]}},{"type":"Feature","properties":{"name":"영천","name_en":"Yeongcheon","name_zh":"永川"},"geometry":{"type":"Point","coordinates":[128.93889090000002,35.9590454]}},{"type":"Feature","properties":{"name":"오송","name_en":"Osong","name_zh":"五松"},"geometry":{"type":"Point","coordinates":[127.32736290000001,36.6202295]}},{"type":"Feature","properties":{"name":"용산","name_en":"Yongsan","name_zh":"龍山"},"geometry":{"type":"Point","coordinates":[126.9648271,37.5299526]}},{"type":"Feature","properties":{"name":"울산","name_en":"Ulsan","name_zh":"蔚山"},"geometry":{"type":"Point","coordinates":[129.13793030000002,35.5513139]}},{"type":"Feature","properties":{"name":"원주","name_en":"Wonju","name_zh":"原州"},"geometry":{"type":"Point","coordinates":[127.9228206,37.3164083]}},{"type":"Feature","properties":{"name":"의성","name_en":"Uiseong","name_zh":"義城"},"geometry":{"type":"Point","coordinates":[128.693128,36.35336]}},{"type":"Feature","properties":{"name":"익산","name_en":"Iksan","name_zh":"益山"},"geometry":{"type":"Point","coordinates":[126.9459134,35.9412564]}},{"type":"Feature","properties":{"name":"장성","name_en":"Jangseong","name_zh":"長城"},"geometry":{"type":"Point","coordinates":[126.7796823,35.3001204]}},{"type":"Feature","properties":{"name":"전주","name_en":"Jeonju","name_zh":"全州"},"geometry":{"type":"Point","coordinates":[127.16236490000001,35.8500537]}},{"type":"Feature","properties":{"name":"정동진","name_en":"Jeongdongjin","name_zh":"正東津"},"geometry":{"type":"Point","coordinates":[129.0325076,37.6918304]}},{"type":"Feature","properties":{"name":"정읍","name_en":"Jeongeup","name_zh":"井邑"},"geometry":{"type":"Point","coordinates":[126.8419169,35.5757734]}},{"type":"Feature","properties":{"name":"제천","name_en":"Jecheon","name_zh":"堤川"},"geometry":{"type":"Point","coordinates":[128.2059637,37.1270743]}},{"type":"Feature","properties":{"name":"진부","name_en":"Jinbu","name_zh":"珍富"},"geometry":{"type":"Point","coordinates":[128.57482240000002,37.6425685]}},{"type":"Feature","properties":{"name":"진영","name_en":"Jinyeong","name_zh":"進永"},"geometry":{"type":"Point","coordinates":[128.7735504,35.2987478]}},{"type":"Feature","properties":{"name":"진주","name_en":"Jinju","name_zh":"晋州"},"geometry":{"type":"Point","coordinates":[128.1183494,35.1501201]}},{"type":"Feature","properties":{"name":"창원중앙","name_en":"Changwon Jungang","name_zh":"昌原中央"},"geometry":{"type":"Point","coordinates":[128.7016046,35.2425718]}},{"type":"Feature","properties":{"name":"천안아산","name_en":"Cheonan-Asan","name_zh":"天安牙山"},"geometry":{"type":"Point","coordinates":[127.10449910000001,36.7943803]}},{"type":"Feature","properties":{"name":"청량리","name_en":"Cheongnyangni","name_zh":"淸凉里"},"geometry":{"type":"Point","coordinates":[127.0482573,37.5805961]}},{"type":"Feature","properties":{"name":"충주","name_en":"Chungju","name_zh":"忠州"},"geometry":{"type":"Point","coordinates":[127.9080675,36.9752571]}},{"type":"Feature","properties":{"name":"태화강","name_en":"Taehwagang","name_zh":"太和江"},"geometry":{"type":"Point","coordinates":[129.3540107,35.5388089]}},{"type":"Feature","properties":{"name":"평창","name_en":"Pyeongchang","name_zh":"平昌"},"geometry":{"type":"Point","coordinates":[128.43003430000002,37.5619574]}},{"type":"Feature","properties":{"name":"평택지제","name_en":"Pyeongtaek Jije","name_zh":"平澤芝制"},"geometry":{"type":"Point","coordinates":[127.0698667,37.018753]}},{"type":"Feature","properties":{"name":"포항","name_en":"Pohang","name_zh":"浦項"},"geometry":{"type":"Point","coordinates":[129.3426784,36.0712333]}},{"type":"Feature","properties":{"name":"풍기","name_en":"Punggi","name_zh":"豊基"},"geometry":{"type":"Point","coordinates":[128.52347210000002,36.8740554]}},{"type":"Feature","properties":{"name":"행신","name_en":"Haengsin","name_zh":"幸信"},"geometry":{"type":"Point","coordinates":[126.834058,37.612035]}},{"type":"Feature","properties":{"name":"횡성","name_en":"Hoengseong","name_zh":"橫城"},"geometry":{"type":"Point","coordinates":[128.01048350000002,37.4828074]}},{"type":"Feature","properties":{"name":"서대구","name_en":"Seodaegu","name_zh":"西大邱"},"geometry":{"type":"Point","coordinates":[128.540229,35.881322]}},{"type":"Feature","properties":{"name":"구포","name_en":"Gupo","name_zh":"龜浦"},"geometry":{"type":"Point","coordinates":[128.997301,35.205308]}},{"type":"Feature","properties":{"name":"물금","name_en":"Mulgeum","name_zh":"勿禁"},"geometry":{"type":"Point","coordinates":[128.985385,35.306635]}},{"type":"Feature","properties":{"name":"경산","name_en":"Gyeongsan","name_zh":"慶山"},"geometry":{"type":"Point","coordinates":[128.727612,35.819329]}},{"type":"Feature","properties":{"name":"창원","name_en":"Changwon","name_zh":"昌原"},"geometry":{"type":"Point","coordinates":[128.607034,35.258125]}},{"type":"Feature","properties":{"name":"기장","name_en":"Gijang","name_zh":"機張"},"geometry":{"type":"Point","coordinates":[129.21875,35.24491]}},{"type":"Feature","properties":{"name":"남창","name_en":"Namchang","name_zh":"南倉"},"geometry":{"type":"Point","coordinates":[129.282469,35.419268]}},{"type":"Feature","properties":{"name":"북울산","name_en":"Buk-Ulsan","name_zh":"北蔚山"},"geometry":{"type":"Point","coordinates":[129.372449,35.614869]}},{"type":"Feature","properties":{"name":"센텀","name_en":"Centum","name_zh":"센텀"},"geometry":{"type":"Point","coordinates":[129.125442,35.178542]}},{"type":"Feature","properties":{"name":"신해운대","name_en":"Sinhaeundae","name_zh":"新海雲臺"},"geometry":{"type":"Point","coordinates":[129.176351,35.181692]}},{"type":"Feature","properties":{"name":"울진","name_en":"Uljin","name_zh":"蔚珍"},"geometry":{"type":"Point","coordinates":[129.395474,36.981741]}},{"type":"Feature","properties":{"name":"삼척","name_en":"Samcheok","name_zh":"三陟"},"geometry":{"type":"Point","coordinates":[129.178778,37.429826]}},{"type":"Feature","properties":{"name":"덕소","name_en":"Deokso","name_zh":"德沼"},"geometry":{"type":"Point","coordinates":[127.208821,37.586905]}},{"type":"Feature","properties":{"name":"판교(경기)","name_en":"Pangyo","name_zh":"板橋"},"geometry":{"type":"Point","coordinates":[127.111187,37.394364]}}]}