{"type":"FeatureCollection","features":[{"type":"Feature","properties":{},"geometry":{"type":"LineString","coordinates":[[121.5095,25.047],[121.5115,25.0484],[121.5148,25.0481]]}},{"type":"Feature","properties":{},"geometry":{"type":"LineString","coordinates":[[121.2186,25.0168],[121.2169,25.0151]]}},{"type":"Feature","properties":{},"geometry":{"type":"LineString","coordinates":[[121.0439,24.8227],[121.0434,24.8206]]}},{"type":"Feature","properties":{},"geometry":{"type":"LineString","coordinates":[[120.6147,24.0995],[120.6167,24.1196]]}},{"type":"Feature","properties":{},"geometry":{"type":"LineString","coordinates":[[120.3116,22.6911],[120.3181,22.6974]]}},{"type":"Feature","properties":{},"geometry":{"type":"LineString","coordinates":[[120.6688,24.2834],[120.6715,24.2934]]}},{"type":"Feature","properties":{},"geometry":{"type":"LineString","coordinates":[[120.6291,24.1837],[120.6352,24.2009],[120.6369,24.2075],[120.6392,24.2307],[120.6407,24.2378],[120.6446,24.2477],[120.6496,24.2557]]}},{"type":"Feature","properties":{},"geometry":{"type":"LineString","coordinates":[[120.6961,24.4299],[120.6975,24.4358]]}},{"type":"Feature","properties":{},"geometry":{"type":"LineString","coordinates":[[120.6954,24.4271],[120.6958,24.4287]]}},{"type":"Feature","properties":{},"geometry":{"type":"LineString","coordinates":[[120.6975,24.4358],[120.6981,24.438]]}},{"type":"Feature","properties":{},"geometry":{"type":"LineString","coordinates":[[120.6981,24.438],[120.6987,24.4407]]}},{"type":"Feature","properties":{},"geometry":{"type":"LineString","coordinates":[[120.673,24.3097],[120.6736,24.3162]]}},{"type":"Feature","properties":{},"geometry":{"type":"LineString","coordinates":[[120.6741,24.3217],[120.6744,24.3253]]}},{"type":"Feature","properties":{},"geometry":{"type":"LineString","coordinates":[[120.6603,24.2686],[120.6612,24.2698]]}},{"type":"Feature","properties":{},"geometry":{"type":"LineString","coordinates":[[121.0656,24.876],[121.0581,24.8648],[121.0542,24.8577],[121.0512,24.8503],[121.0486,24.8409]]}},{"type":"Feature","properties":{},"geometry":{"type":"LineString","coordinates":[[121.0486,24.8409],[121.0448,24.8261]]}},{"type":"Feature","properties":{},"geometry":{"type":"LineString","coordinates":[[121.0442,24.8238],[121.0439,24.8227]]}},{"type":"Feature","properties":{},"geometry":{"type":"LineString","coordinates":[[120.6117,24.0748],[120.613,24.0817]]}},{"type":"Feature","properties":{},"geometry":{"type":"LineString","coordinates":[[120.613,24.0817],[120.6138,24.0899]]}},{"type":"Feature","properties":{},"geometry":{"type":"LineString","coordinates":[[120.6059,24.0562],[120.6068,24.06]]}},{"type":"Feature","properties":{},"geometry":{"type":"LineString","coordinates":[[120.6044,24.0482],[120.6052,24.0529]]}},{"type":"Feature","properties":{},"geometry":{"type":"LineString","coordinates":[[120.6068,24.06],[120.6083,24.0648]]}},{"type":"Feature","properties":{},"geometry":{"type":"LineString","coordinates":[[120.6052,24.0529],[120.6059,24.0562]]}},{"type":"Feature","properties":{},"geometry":{"type":"LineString","coordinates":[[120.614,23.9537],[120.6138,23.9555]]}},{"type":"Feature","properties":{},"geometry":{"type":"LineString","coordinates":[[120.8317,24.6082],[120.8516,24.6169]]}},{"type":"Feature","properties":{},"geometry":{"type":"LineString","coordinates":[[120.8713,24.6276],[120.8733,24.6288]]}},{"type":"Feature","properties":{},"geometry":{"type":"LineString","coordinates":[[120.8753,24.6298],[120.8734,24.6287]]}},{"type":"Feature","properties":{},"geometry":{"type":"LineString","coordinates":[[120.8665,24.6247],[120.8713,24.6276]]}},{"type":"Feature","properties":{},"geometry":{"type":"LineString","coordinates":[[120.8589,24.6204],[120.8665,24.6247]]}},{"type":"Feature","properties":{},"geometry":{"type":"LineString","coordinates":[[120.8516,24.6169],[120.8554,24.6186]]}},{"type":"Feature","properties":{},"geometry":{"type":"LineString","coordinates":[[120.3306,23.3482],[120.3287,23.3535]]}},{"type":"Feature","properties":{},"geometry":{"type":"LineString","coordinates":[[120.3287,23.3535],[120.3214,23.3759],[120.3203,23.3839],[120.3209,23.4019]]}},{"type":"Feature","properties":{},"geometry":{"type":"LineString","coordinates":[[120.666,24.277],[120.6624,24.2713]]}},{"type":"Feature","properties":{},"geometry":{"type":"LineString","coordinates":[[120.6677,24.2807],[120.6688,24.2834]]}},{"type":"Feature","properties":{},"geometry":{"type":"LineString","coordinates":[[120.667,24.2792],[120.6677,24.2807]]}},{"type":"Feature","properties":{},"geometry":{"type":"LineString","coordinates":[[120.6719,24.2966],[120.6719,24.2969]]}},{"type":"Feature","properties":{},"geometry":{"type":"LineString","coordinates":[[120.6716,24.2934],[120.6688,24.2833]]}},{"type":"Feature","properties":{},"geometry":{"type":"LineString","coordinates":[[120.6659,24.277],[120.667,24.2792]]}},{"type":"Feature","properties":{},"geometry":{"type":"LineString","coordinates":[[120.6715,24.2934],[120.6719,24.2966]]}},{"type":"Feature","properties":{},"geometry":{"type":"LineString","coordinates":[[120.672,24.2966],[120.6716,24.2934]]}},{"type":"Feature","properties":{},"geometry":{"type":"LineString","coordinates":[[120.672,24.2972],[120.672,24.2969]]}},{"type":"Feature","properties":{},"geometry":{"type":"LineString","coordinates":[[120.6624,24.2713],[120.6613,24.2698]]}},{"type":"Feature","properties":{},"geometry":{"type":"LineString","coordinates":[[120.6677,24.2806],[120.667,24.2791]]}},{"type":"Feature","properties":{},"geometry":{"type":"LineString","coordinates":[[120.6624,24.2713],[120.6659,24.277]]}},{"type":"Feature","properties":{},"geometry":{"type":"LineString","coordinates":[[120.667,24.2791],[120.666,24.277]]}},{"type":"Feature","properties":{},"geometry":{"type":"LineString","coordinates":[[120.672,24.2972],[120.673,24.3097]]}},{"type":"Feature","properties":{},"geometry":{"type":"LineString","coordinates":[[120.672,24.2969],[120.672,24.2966]]}},{"type":"Feature","properties":{},"geometry":{"type":"LineString","coordinates":[[120.6719,24.2969],[120.672,24.2972]]}},{"type":"Feature","properties":{},"geometry":{"type":"LineString","coordinates":[[120.6688,24.2833],[120.6677,24.2806]]}},{"type":"Feature","properties":{},"geometry":{"type":"LineString","coordinates":[[120.6612,24.2698],[120.6624,24.2713]]}},{"type":"Feature","properties":{},"geometry":{"type":"LineString","coordinates":[[120.6138,24.0899],[120.6147,24.0995]]}},{"type":"Feature","properties":{},"geometry":{"type":"LineString","coordinates":[[120.6092,24.0672],[120.6104,24.0707]]}},{"type":"Feature","properties":{},"geometry":{"type":"LineString","coordinates":[[120.6043,24.0469],[120.6044,24.0482]]}},{"type":"Feature","properties":{},"geometry":{"type":"LineString","coordinates":[[120.6104,24.0707],[120.6117,24.0748]]}},{"type":"Feature","properties":{},"geometry":{"type":"LineString","coordinates":[[120.6116,23.9783],[120.6042,24.0291],[120.6038,24.0377],[120.6043,24.0469]]}},{"type":"Feature","properties":{},"geometry":{"type":"LineString","coordinates":[[120.6083,24.0648],[120.6092,24.0672]]}},{"type":"Feature","properties":{},"geometry":{"type":"LineString","coordinates":[[121.1987,24.9969],[121.1854,24.9836]]}},{"type":"Feature","properties":{},"geometry":{"type":"LineString","coordinates":[[121.2188,25.0169],[121.2186,25.0168]]}},{"type":"Feature","properties":{},"geometry":{"type":"LineString","coordinates":[[121.2409,25.0382],[121.2232,25.0213]]}},{"type":"Feature","properties":{},"geometry":{"type":"LineString","coordinates":[[121.2012,24.9993],[121.1987,24.9969]]}},{"type":"Feature","properties":{},"geometry":{"type":"LineString","coordinates":[[121.2204,25.0185],[121.2196,25.0177]]}},{"type":"Feature","properties":{},"geometry":{"type":"LineString","coordinates":[[121.3288,25.0454],[121.3248,25.0476]]}},{"type":"Feature","properties":{},"geometry":{"type":"LineString","coordinates":[[121.411,25.0054],[121.4017,25.0071],[121.3923,25.0102]]}},{"type":"Feature","properties":{},"geometry":{"type":"LineString","coordinates":[[121.3077,25.0561],[121.307,25.0563]]}},{"type":"Feature","properties":{},"geometry":{"type":"LineString","coordinates":[[121.3209,25.0499],[121.3143,25.0534]]}},{"type":"Feature","properties":{},"geometry":{"type":"LineString","coordinates":[[121.3091,25.0556],[121.3079,25.0561]]}},{"type":"Feature","properties":{},"geometry":{"type":"LineString","coordinates":[[121.3242,25.048],[121.3211,25.0498]]}},{"type":"Feature","properties":{},"geometry":{"type":"LineString","coordinates":[[121.3103,25.0552],[121.3092,25.0556]]}},{"type":"Feature","properties":{},"geometry":{"type":"LineString","coordinates":[[121.2982,25.0586],[121.2866,25.0594],[121.2742,25.058],[121.2631,25.0543],[121.2526,25.0484]]}},{"type":"Feature","properties":{},"geometry":{"type":"LineString","coordinates":[[121.3124,25.0543],[121.3108,25.055]]}},{"type":"Feature","properties":{},"geometry":{"type":"LineString","coordinates":[[121.3068,25.0564],[121.2998,25.0582]]}},{"type":"Feature","properties":{},"geometry":{"type":"LineString","coordinates":[[121.3139,25.0536],[121.3128,25.0541]]}},{"type":"Feature","properties":{},"geometry":{"type":"LineString","coordinates":[[121.3323,25.0435],[121.3291,25.0452]]}},{"type":"Feature","properties":{},"geometry":{"type":"LineString","coordinates":[[120.6167,24.1196],[120.6186,24.14],[120.6215,24.1595],[120.6232,24.1666],[120.6291,24.1837]]}},{"type":"Feature","properties":{},"geometry":{"type":"LineString","coordinates":[[121.447,25.004],[121.4518,25.0037]]}},{"type":"Feature","properties":{},"geometry":{"type":"LineString","coordinates":[[121.4396,25.0045],[121.4351,25.0047],[121.4243,25.0036],[121.4113,25.0053]]}},{"type":"Feature","properties":{},"geometry":{"type":"LineString","coordinates":[[120.7874,24.5846],[120.7909,24.5877]]}},{"type":"Feature","properties":{},"geometry":{"type":"LineString","coordinates":[[120.7952,24.591],[120.8053,24.5967]]}},{"type":"Feature","properties":{},"geometry":{"type":"LineString","coordinates":[[120.7684,24.5636],[120.7651,24.5595]]}},{"type":"Feature","properties":{},"geometry":{"type":"LineString","coordinates":[[120.7684,24.5636],[120.7838,24.581]]}},{"type":"Feature","properties":{},"geometry":{"type":"LineString","coordinates":[[120.6741,24.3217],[120.672,24.2972]]}},{"type":"Feature","properties":{},"geometry":{"type":"LineString","coordinates":[[120.3213,22.7011],[120.3234,22.7043],[120.3252,22.7058]]}},{"type":"Feature","properties":{},"geometry":{"type":"LineString","coordinates":[[120.2844,22.9286],[120.2753,22.9476],[120.2732,22.9543],[120.2722,22.9606]]}},{"type":"Feature","properties":{},"geometry":{"type":"LineString","coordinates":[[120.2722,22.9606],[120.2721,22.9705],[120.274,22.9805],[120.2767,22.9879],[120.2863,23.0084],[120.2889,23.0197],[120.2893,23.0281],[120.2873,23.076]]}},{"type":"Feature","properties":{},"geometry":{"type":"LineString","coordinates":[[121.0115,24.7434],[121.0096,24.7421]]}},{"type":"Feature","properties":{},"geometry":{"type":"LineString","coordinates":[[121.0124,24.744],[121.0115,24.7434]]}},{"type":"Feature","properties":{},"geometry":{"type":"LineString","coordinates":[[121.0268,24.76],[121.0222,24.7535]]}},{"type":"Feature","properties":{},"geometry":{"type":"LineString","coordinates":[[121.0361,24.7919],[121.0359,24.791]]}},{"type":"Feature","properties":{},"geometry":{"type":"LineString","coordinates":[[121.0359,24.791],[121.0326,24.7736]]}},{"type":"Feature","properties":{},"geometry":{"type":"LineString","coordinates":[[120.9192,24.6649],[120.9174,24.6622]]}},{"type":"Feature","properties":{},"geometry":{"type":"LineString","coordinates":[[120.9255,24.6744],[120.9192,24.6649]]}},{"type":"Feature","properties":{},"geometry":{"type":"LineString","coordinates":[[120.9174,24.6622],[120.9165,24.661]]}},{"type":"Feature","properties":{},"geometry":{"type":"LineString","coordinates":[[120.895,24.6408],[120.8906,24.6381]]}},{"type":"Feature","properties":{},"geometry":{"type":"LineString","coordinates":[[120.9144,24.6583],[120.9072,24.6505],[120.9016,24.6456]]}},{"type":"Feature","properties":{},"geometry":{"type":"LineString","coordinates":[[120.7209,24.4958],[120.7189,24.4923]]}},{"type":"Feature","properties":{},"geometry":{"type":"LineString","coordinates":[[120.7358,24.5222],[120.7333,24.5178]]}},{"type":"Feature","properties":{},"geometry":{"type":"LineString","coordinates":[[120.7286,24.5095],[120.7278,24.508]]}},{"type":"Feature","properties":{},"geometry":{"type":"LineString","coordinates":[[120.731,24.5136],[120.729,24.5102]]}},{"type":"Feature","properties":{},"geometry":{"type":"LineString","coordinates":[[120.9272,24.677],[120.9255,24.6744]]}},{"type":"Feature","properties":{},"geometry":{"type":"LineString","coordinates":[[120.9388,24.6942],[120.9272,24.677]]}},{"type":"Feature","properties":{},"geometry":{"type":"LineString","coordinates":[[120.956,24.7109],[120.9459,24.7022]]}},{"type":"Feature","properties":{},"geometry":{"type":"LineString","coordinates":[[120.9459,24.7022],[120.9388,24.6942]]}},{"type":"Feature","properties":{},"geometry":{"type":"LineString","coordinates":[[120.994,24.733],[120.989,24.7302]]}},{"type":"Feature","properties":{},"geometry":{"type":"LineString","coordinates":[[120.989,24.7302],[120.986,24.7284]]}},{"type":"Feature","properties":{},"geometry":{"type":"LineString","coordinates":[[120.9951,24.7336],[120.994,24.733]]}},{"type":"Feature","properties":{},"geometry":{"type":"LineString","coordinates":[[120.986,24.7284],[120.9807,24.7255]]}},{"type":"Feature","properties":{},"geometry":{"type":"LineString","coordinates":[[120.9767,24.7232],[120.9749,24.7222]]}},{"type":"Feature","properties":{},"geometry":{"type":"LineString","coordinates":[[120.9781,24.724],[120.9767,24.7232]]}},{"type":"Feature","properties":{},"geometry":{"type":"LineString","coordinates":[[120.9652,24.7167],[120.9629,24.7153]]}},{"type":"Feature","properties":{},"geometry":{"type":"LineString","coordinates":[[120.9669,24.7177],[120.9652,24.7167]]}},{"type":"Feature","properties":{},"geometry":{"type":"LineString","coordinates":[[120.9692,24.719],[120.9674,24.718]]}},{"type":"Feature","properties":{},"geometry":{"type":"LineString","coordinates":[[120.9749,24.7222],[120.9721,24.7206]]}},{"type":"Feature","properties":{},"geometry":{"type":"LineString","coordinates":[[120.9629,24.7153],[120.9607,24.714]]}},{"type":"Feature","properties":{},"geometry":{"type":"LineString","coordinates":[[120.9702,24.7195],[120.9692,24.719]]}},{"type":"Feature","properties":{},"geometry":{"type":"LineString","coordinates":[[120.9674,24.718],[120.9669,24.7177]]}},{"type":"Feature","properties":{},"geometry":{"type":"LineString","coordinates":[[120.9807,24.7255],[120.9781,24.724]]}},{"type":"Feature","properties":{},"geometry":{"type":"LineString","coordinates":[[120.9721,24.7206],[120.9702,24.7195]]}},{"type":"Feature","properties":{},"geometry":{"type":"LineString","coordinates":[[120.9607,24.714],[120.959,24.7129]]}},{"type":"Feature","properties":{},"geometry":{"type":"LineString","coordinates":[[120.6613,24.2698],[120.6605,24.2687]]}},{"type":"Feature","properties":{},"geometry":{"type":"LineString","coordinates":[[120.704,24.4623],[120.7033,24.4593]]}},{"type":"Feature","properties":{},"geometry":{"type":"LineString","coordinates":[[120.7033,24.4593],[120.7023,24.4552]]}},{"type":"Feature","properties":{},"geometry":{"type":"LineString","coordinates":[[120.8665,24.6247],[120.8589,24.6203]]}},{"type":"Feature","properties":{},"geometry":{"type":"LineString","coordinates":[[120.8714,24.6275],[120.8665,24.6247]]}},{"type":"Feature","properties":{},"geometry":{"type":"LineString","coordinates":[[120.8554,24.6185],[120.8516,24.6168]]}},{"type":"Feature","properties":{},"geometry":{"type":"LineString","coordinates":[[121.3128,25.0542],[121.314,25.0536]]}},{"type":"Feature","properties":{},"geometry":{"type":"LineString","coordinates":[[121.3211,25.0498],[121.3243,25.048]]}},{"type":"Feature","properties":{},"geometry":{"type":"LineString","coordinates":[[121.3924,25.0102],[121.4017,25.0071],[121.411,25.0054]]}},{"type":"Feature","properties":{},"geometry":{"type":"LineString","coordinates":[[121.307,25.0564],[121.3078,25.0561]]}},{"type":"Feature","properties":{},"geometry":{"type":"LineString","coordinates":[[121.3248,25.0477],[121.3288,25.0454]]}},{"type":"Feature","properties":{},"geometry":{"type":"LineString","coordinates":[[121.4113,25.0054],[121.4243,25.0037],[121.4346,25.0047],[121.4396,25.0046]]}},{"type":"Feature","properties":{},"geometry":{"type":"LineString","coordinates":[[121.3079,25.0561],[121.3091,25.0557]]}},{"type":"Feature","properties":{},"geometry":{"type":"LineString","coordinates":[[121.3108,25.055],[121.3124,25.0544]]}},{"type":"Feature","properties":{},"geometry":{"type":"LineString","coordinates":[[121.3143,25.0535],[121.3209,25.0499]]}},{"type":"Feature","properties":{},"geometry":{"type":"LineString","coordinates":[[121.3093,25.0556],[121.3103,25.0552]]}},{"type":"Feature","properties":{},"geometry":{"type":"LineString","coordinates":[[121.3293,25.0452],[121.3323,25.0435]]}},{"type":"Feature","properties":{},"geometry":{"type":"LineString","coordinates":[[120.2873,22.9229],[120.2844,22.9286]]}},{"type":"Feature","properties":{},"geometry":{"type":"LineString","coordinates":[[120.2887,22.92],[120.2873,22.9229]]}},{"type":"Feature","properties":{},"geometry":{"type":"LineString","coordinates":[[120.3073,22.8781],[120.304,22.8895],[120.2887,22.92]]}},{"type":"Feature","properties":{},"geometry":{"type":"LineString","coordinates":[[120.2887,22.92],[120.2844,22.9286]]}},{"type":"Feature","properties":{},"geometry":{"type":"LineString","coordinates":[[120.6142,23.9509],[120.6141,23.9519]]}},{"type":"Feature","properties":{},"geometry":{"type":"LineString","coordinates":[[120.6141,23.9519],[120.614,23.9537]]}},{"type":"Feature","properties":{},"geometry":{"type":"LineString","coordinates":[[120.6143,23.9496],[120.6145,23.9473]]}},{"type":"Feature","properties":{},"geometry":{"type":"LineString","coordinates":[[120.6156,23.9325],[120.615,23.923],[120.6137,23.9168],[120.6108,23.9086],[120.6066,23.9008],[120.6022,23.8946],[120.5959,23.8882],[120.5914,23.8844],[120.5831,23.879]]}},{"type":"Feature","properties":{},"geometry":{"type":"LineString","coordinates":[[120.5255,23.8501],[120.536,23.8538],[120.5523,23.8609],[120.5713,23.8718]]}},{"type":"Feature","properties":{},"geometry":{"type":"LineString","coordinates":[[120.6143,23.9496],[120.6142,23.9509]]}},{"type":"Feature","properties":{},"geometry":{"type":"LineString","coordinates":[[120.6145,23.9473],[120.6152,23.9395]]}},{"type":"Feature","properties":{},"geometry":{"type":"LineString","coordinates":[[120.6142,23.9509],[120.6143,23.9496]]}},{"type":"Feature","properties":{},"geometry":{"type":"LineString","coordinates":[[120.614,23.9538],[120.6142,23.9519]]}},{"type":"Feature","properties":{},"geometry":{"type":"LineString","coordinates":[[120.6145,23.9473],[120.6143,23.9496]]}},{"type":"Feature","properties":{},"geometry":{"type":"LineString","coordinates":[[120.5786,23.8762],[120.594,23.8866],[120.6003,23.8925],[120.6066,23.9008],[120.6107,23.9086],[120.6136,23.9168],[120.615,23.923],[120.6156,23.9325]]}},{"type":"Feature","properties":{},"geometry":{"type":"LineString","coordinates":[[120.6142,23.9519],[120.6142,23.9509]]}},{"type":"Feature","properties":{},"geometry":{"type":"LineString","coordinates":[[120.6044,24.0469],[120.6038,24.0377],[120.6045,24.0276],[120.6117,23.9783]]}},{"type":"Feature","properties":{},"geometry":{"type":"LineString","coordinates":[[120.6151,23.9395],[120.6145,23.9473]]}},{"type":"Feature","properties":{},"geometry":{"type":"LineString","coordinates":[[120.6139,23.9555],[120.614,23.9538]]}},{"type":"Feature","properties":{},"geometry":{"type":"LineString","coordinates":[[120.5713,23.8718],[120.5786,23.8762]]}},{"type":"Feature","properties":{},"geometry":{"type":"LineString","coordinates":[[120.5714,23.8718],[120.5523,23.8608],[120.536,23.8537],[120.5255,23.8501]]}},{"type":"Feature","properties":{},"geometry":{"type":"LineString","coordinates":[[120.4871,23.8417],[120.5255,23.8501]]}},{"type":"Feature","properties":{},"geometry":{"type":"LineString","coordinates":[[120.4871,23.8416],[120.4764,23.8394],[120.4657,23.8357],[120.4558,23.8301],[120.4479,23.8236]]}},{"type":"Feature","properties":{},"geometry":{"type":"LineString","coordinates":[[120.4478,23.8236],[120.4558,23.8302],[120.4657,23.8357],[120.4764,23.8394],[120.4871,23.8417]]}},{"type":"Feature","properties":{},"geometry":{"type":"LineString","coordinates":[[120.433,23.7988],[120.4381,23.8111],[120.4428,23.818],[120.4478,23.8236]]}},{"type":"Feature","properties":{},"geometry":{"type":"LineString","coordinates":[[120.5255,23.8501],[120.4871,23.8416]]}},{"type":"Feature","properties":{},"geometry":{"type":"LineString","coordinates":[[120.4193,23.7446],[120.4253,23.7619],[120.433,23.7988]]}},{"type":"Feature","properties":{},"geometry":{"type":"LineString","coordinates":[[120.4144,23.7321],[120.4147,23.7327]]}},{"type":"Feature","properties":{},"geometry":{"type":"LineString","coordinates":[[120.3858,23.6862],[120.4057,23.7124],[120.4094,23.7194],[120.4144,23.7321]]}},{"type":"Feature","properties":{},"geometry":{"type":"LineString","coordinates":[[120.4144,23.7321],[120.418,23.7413]]}},{"type":"Feature","properties":{},"geometry":{"type":"LineString","coordinates":[[120.4147,23.7327],[120.418,23.7413]]}},{"type":"Feature","properties":{},"geometry":{"type":"LineString","coordinates":[[120.4145,23.732],[120.4095,23.7193],[120.4057,23.7124],[120.3859,23.6862]]}},{"type":"Feature","properties":{},"geometry":{"type":"LineString","coordinates":[[120.3559,23.647],[120.3858,23.6862]]}},{"type":"Feature","properties":{},"geometry":{"type":"LineString","coordinates":[[120.4332,23.7992],[120.4254,23.7619],[120.4193,23.7446]]}},{"type":"Feature","properties":{},"geometry":{"type":"LineString","coordinates":[[120.4184,23.7422],[120.4149,23.7332]]}},{"type":"Feature","properties":{},"geometry":{"type":"LineString","coordinates":[[120.4479,23.8236],[120.4429,23.818],[120.4382,23.8111],[120.4332,23.7992]]}},{"type":"Feature","properties":{},"geometry":{"type":"LineString","coordinates":[[120.3323,23.5746],[120.3342,23.6033],[120.3369,23.6152],[120.3404,23.624],[120.3442,23.6311],[120.3559,23.647]]}},{"type":"Feature","properties":{},"geometry":{"type":"LineString","coordinates":[[120.3859,23.6862],[120.356,23.647]]}},{"type":"Feature","properties":{},"geometry":{"type":"LineString","coordinates":[[120.3323,23.5746],[120.3278,23.5403],[120.3243,23.4697]]}},{"type":"Feature","properties":{},"geometry":{"type":"LineString","coordinates":[[120.3243,23.4697],[120.3278,23.5403],[120.3323,23.5746]]}},{"type":"Feature","properties":{},"geometry":{"type":"LineString","coordinates":[[120.3238,23.4592],[120.3239,23.4631]]}},{"type":"Feature","properties":{},"geometry":{"type":"LineString","coordinates":[[120.356,23.647],[120.3443,23.6311],[120.3404,23.624],[120.337,23.6152],[120.3342,23.6032],[120.3323,23.5746]]}},{"type":"Feature","properties":{},"geometry":{"type":"LineString","coordinates":[[120.3236,23.4546],[120.321,23.4019]]}},{"type":"Feature","properties":{},"geometry":{"type":"LineString","coordinates":[[120.3235,23.4531],[120.3239,23.4631]]}},{"type":"Feature","properties":{},"geometry":{"type":"LineString","coordinates":[[120.3235,23.4546],[120.3238,23.4592]]}},{"type":"Feature","properties":{},"geometry":{"type":"LineString","coordinates":[[120.3209,23.4019],[120.3235,23.4531]]}},{"type":"Feature","properties":{},"geometry":{"type":"LineString","coordinates":[[120.321,23.4019],[120.3204,23.3839],[120.3215,23.376],[120.3288,23.3535]]}},{"type":"Feature","properties":{},"geometry":{"type":"LineString","coordinates":[[120.3243,23.4697],[120.324,23.4641]]}},{"type":"Feature","properties":{},"geometry":{"type":"LineString","coordinates":[[120.3238,23.4592],[120.3236,23.4553]]}},{"type":"Feature","properties":{},"geometry":{"type":"LineString","coordinates":[[120.3288,23.3535],[120.3307,23.3481]]}},{"type":"Feature","properties":{},"geometry":{"type":"LineString","coordinates":[[120.2881,23.1842],[120.3368,23.2444],[120.3415,23.2519],[120.345,23.2609],[120.3466,23.2713],[120.3459,23.2812],[120.3368,23.3292],[120.3306,23.3482]]}},{"type":"Feature","properties":{},"geometry":{"type":"LineString","coordinates":[[120.2873,23.076],[120.2859,23.0959],[120.2776,23.1291],[120.2764,23.1411],[120.277,23.1484],[120.2803,23.1671],[120.2832,23.1753],[120.2881,23.1842]]}},{"type":"Feature","properties":{},"geometry":{"type":"LineString","coordinates":[[120.2882,23.1842],[120.2833,23.1753],[120.2804,23.1671],[120.277,23.1484],[120.2764,23.1411],[120.2776,23.1292],[120.2859,23.0959],[120.2873,23.076]]}},{"type":"Feature","properties":{},"geometry":{"type":"LineString","coordinates":[[120.3307,23.3481],[120.3368,23.3292],[120.3459,23.2812],[120.3466,23.2713],[120.345,23.2609],[120.3415,23.2519],[120.3369,23.2444],[120.2882,23.1842]]}},{"type":"Feature","properties":{},"geometry":{"type":"LineString","coordinates":[[120.2873,23.076],[120.2894,23.0281],[120.289,23.0196],[120.2864,23.0084],[120.2768,22.9879],[120.274,22.9805],[120.2723,22.9716],[120.2723,22.9606]]}},{"type":"Feature","properties":{},"geometry":{"type":"LineString","coordinates":[[120.2723,22.9606],[120.2737,22.9528],[120.2759,22.946],[120.2844,22.9287]]}},{"type":"Feature","properties":{},"geometry":{"type":"LineString","coordinates":[[120.2844,22.9287],[120.2881,22.9215]]}},{"type":"Feature","properties":{},"geometry":{"type":"LineString","coordinates":[[120.3498,22.7606],[120.3557,22.7481],[120.3581,22.7398],[120.3589,22.7328],[120.3587,22.7172]]}},{"type":"Feature","properties":{},"geometry":{"type":"LineString","coordinates":[[120.3074,22.8781],[120.3166,22.83],[120.3198,22.8223],[120.3279,22.8066]]}},{"type":"Feature","properties":{},"geometry":{"type":"LineString","coordinates":[[120.3497,22.7606],[120.3278,22.8066]]}},{"type":"Feature","properties":{},"geometry":{"type":"LineString","coordinates":[[120.2891,22.9194],[120.304,22.8895],[120.3074,22.8781]]}},{"type":"Feature","properties":{},"geometry":{"type":"LineString","coordinates":[[120.3278,22.8066],[120.3197,22.8222],[120.3166,22.8299],[120.3073,22.8781]]}},{"type":"Feature","properties":{},"geometry":{"type":"LineString","coordinates":[[120.3279,22.8066],[120.3498,22.7606]]}},{"type":"Feature","properties":{},"geometry":{"type":"LineString","coordinates":[[120.3587,22.7172],[120.3588,22.7328],[120.358,22.7398],[120.3556,22.7481],[120.3497,22.7606]]}},{"type":"Feature","properties":{},"geometry":{"type":"LineString","coordinates":[[120.3466,22.7058],[120.3279,22.7065],[120.3252,22.7058]]}},{"type":"Feature","properties":{},"geometry":{"type":"LineString","coordinates":[[120.3253,22.7057],[120.3235,22.7043],[120.3213,22.7011]]}},{"type":"Feature","properties":{},"geometry":{"type":"LineString","coordinates":[[120.3059,22.6859],[120.3091,22.6886]]}},{"type":"Feature","properties":{},"geometry":{"type":"LineString","coordinates":[[120.3091,22.6886],[120.3116,22.6911]]}},{"type":"Feature","properties":{},"geometry":{"type":"LineString","coordinates":[[120.3466,22.7058],[120.3279,22.7064],[120.3253,22.7057]]}},{"type":"Feature","properties":{},"geometry":{"type":"LineString","coordinates":[[120.3182,22.6974],[120.3116,22.6911]]}},{"type":"Feature","properties":{},"geometry":{"type":"LineString","coordinates":[[121.3325,25.0434],[121.387,25.0127]]}},{"type":"Feature","properties":{},"geometry":{"type":"LineString","coordinates":[[121.387,25.0127],[121.3325,25.0433]]}},{"type":"Feature","properties":{},"geometry":{"type":"LineString","coordinates":[[121.3873,25.0126],[121.3906,25.011]]}},{"type":"Feature","properties":{},"geometry":{"type":"LineString","coordinates":[[121.3905,25.0109],[121.3873,25.0125]]}},{"type":"Feature","properties":{},"geometry":{"type":"LineString","coordinates":[[120.6151,24.1028],[120.6139,24.0899]]}},{"type":"Feature","properties":{},"geometry":{"type":"LineString","coordinates":[[120.6167,24.1196],[120.6151,24.1028]]}},{"type":"Feature","properties":{},"geometry":{"type":"LineString","coordinates":[[120.6509,24.2572],[120.6451,24.2486],[120.641,24.2386],[120.6391,24.2292],[120.637,24.2074],[120.6353,24.2009],[120.6292,24.1837]]}},{"type":"Feature","properties":{},"geometry":{"type":"LineString","coordinates":[[120.6496,24.2557],[120.6588,24.2668]]}},{"type":"Feature","properties":{},"geometry":{"type":"LineString","coordinates":[[120.6589,24.2668],[120.6509,24.2572]]}},{"type":"Feature","properties":{},"geometry":{"type":"LineString","coordinates":[[121.5066,25.037],[121.506,25.0351],[121.5049,25.034],[121.4964,25.0328],[121.4901,25.0277]]}},{"type":"Feature","properties":{},"geometry":{"type":"LineString","coordinates":[[121.5067,25.037],[121.506,25.0349],[121.5049,25.0339],[121.4964,25.0328],[121.4901,25.0277]]}},{"type":"Feature","properties":{},"geometry":{"type":"LineString","coordinates":[[121.5066,25.037],[121.5095,25.047]]}},{"type":"Feature","properties":{},"geometry":{"type":"LineString","coordinates":[[121.5096,25.047],[121.5073,25.0394]]}},{"type":"Feature","properties":{},"geometry":{"type":"LineString","coordinates":[[121.4527,25.0037],[121.4523,25.0037]]}},{"type":"Feature","properties":{},"geometry":{"type":"LineString","coordinates":[[121.4527,25.0037],[121.456,25.0047],[121.4611,25.0104]]}},{"type":"Feature","properties":{},"geometry":{"type":"LineString","coordinates":[[121.461,25.0102],[121.456,25.0046],[121.4527,25.0037]]}},{"type":"Feature","properties":{},"geometry":{"type":"LineString","coordinates":[[121.4901,25.0277],[121.4815,25.0257],[121.4672,25.0157]]}},{"type":"Feature","properties":{},"geometry":{"type":"LineString","coordinates":[[121.4662,25.015],[121.4627,25.0122]]}},{"type":"Feature","properties":{},"geometry":{"type":"LineString","coordinates":[[121.4662,25.0151],[121.4813,25.0256],[121.4901,25.0277]]}},{"type":"Feature","properties":{},"geometry":{"type":"LineString","coordinates":[[121.2998,25.0583],[121.3068,25.0564]]}},{"type":"Feature","properties":{},"geometry":{"type":"LineString","coordinates":[[121.2526,25.0484],[121.2638,25.0547],[121.2742,25.058],[121.2866,25.0595],[121.2982,25.0586]]}},{"type":"Feature","properties":{},"geometry":{"type":"LineString","coordinates":[[121.2526,25.0484],[121.2409,25.0382]]}},{"type":"Feature","properties":{},"geometry":{"type":"LineString","coordinates":[[121.2408,25.0382],[121.2526,25.0484]]}},{"type":"Feature","properties":{},"geometry":{"type":"LineString","coordinates":[[121.2169,25.0151],[121.2186,25.0168]]}},{"type":"Feature","properties":{},"geometry":{"type":"LineString","coordinates":[[121.2186,25.0168],[121.2188,25.0169]]}},{"type":"Feature","properties":{},"geometry":{"type":"LineString","coordinates":[[121.1987,24.997],[121.2011,24.9994]]}},{"type":"Feature","properties":{},"geometry":{"type":"LineString","coordinates":[[121.2188,25.0169],[121.2196,25.0177]]}},{"type":"Feature","properties":{},"geometry":{"type":"LineString","coordinates":[[121.2232,25.0213],[121.2408,25.0382]]}},{"type":"Feature","properties":{},"geometry":{"type":"LineString","coordinates":[[121.2127,25.0109],[121.2108,25.009]]}},{"type":"Feature","properties":{},"geometry":{"type":"LineString","coordinates":[[121.2011,24.9994],[121.2108,25.0091]]}},{"type":"Feature","properties":{},"geometry":{"type":"LineString","coordinates":[[121.2108,25.009],[121.2012,24.9993]]}},{"type":"Feature","properties":{},"geometry":{"type":"LineString","coordinates":[[121.2108,25.0091],[121.2127,25.0109]]}},{"type":"Feature","properties":{},"geometry":{"type":"LineString","coordinates":[[121.2204,25.0185],[121.2232,25.0213]]}},{"type":"Feature","properties":{},"geometry":{"type":"LineString","coordinates":[[121.2232,25.0213],[121.2204,25.0185]]}},{"type":"Feature","properties":{},"geometry":{"type":"LineString","coordinates":[[121.1854,24.9836],[121.1712,24.9689],[121.1616,24.9614],[121.1529,24.9568],[121.1169,24.9409],[121.1109,24.9374],[121.1034,24.9315],[121.0949,24.9218],[121.0859,24.9069],[121.0658,24.8762]]}},{"type":"Feature","properties":{},"geometry":{"type":"LineString","coordinates":[[121.1854,24.9836],[121.1987,24.997]]}},{"type":"Feature","properties":{},"geometry":{"type":"LineString","coordinates":[[121.0657,24.8762],[121.0859,24.9069],[121.0948,24.9218],[121.1033,24.9316],[121.1109,24.9375],[121.1169,24.9409],[121.1529,24.9568],[121.1616,24.9614],[121.1712,24.969],[121.1854,24.9836]]}},{"type":"Feature","properties":{},"geometry":{"type":"LineString","coordinates":[[121.0485,24.8409],[121.0512,24.8503],[121.0541,24.8577],[121.0656,24.876]]}},{"type":"Feature","properties":{},"geometry":{"type":"LineString","coordinates":[[121.0359,24.791],[121.036,24.7919]]}},{"type":"Feature","properties":{},"geometry":{"type":"LineString","coordinates":[[121.0438,24.8227],[121.0441,24.8238]]}},{"type":"Feature","properties":{},"geometry":{"type":"LineString","coordinates":[[121.0447,24.8261],[121.0485,24.8409]]}},{"type":"Feature","properties":{},"geometry":{"type":"LineString","coordinates":[[121.0434,24.8206],[121.0438,24.8227]]}},{"type":"Feature","properties":{},"geometry":{"type":"LineString","coordinates":[[121.0325,24.7736],[121.0359,24.791]]}},{"type":"Feature","properties":{},"geometry":{"type":"LineString","coordinates":[[121.0222,24.7536],[121.0267,24.76]]}},{"type":"Feature","properties":{},"geometry":{"type":"LineString","coordinates":[[120.989,24.7302],[120.9939,24.733]]}},{"type":"Feature","properties":{},"geometry":{"type":"LineString","coordinates":[[121.0025,24.7377],[121.0013,24.7372]]}},{"type":"Feature","properties":{},"geometry":{"type":"LineString","coordinates":[[120.9767,24.7233],[120.9781,24.7241]]}},{"type":"Feature","properties":{},"geometry":{"type":"LineString","coordinates":[[121.0038,24.7386],[121.0075,24.7408]]}},{"type":"Feature","properties":{},"geometry":{"type":"LineString","coordinates":[[121.0025,24.7378],[121.0038,24.7386]]}},{"type":"Feature","properties":{},"geometry":{"type":"LineString","coordinates":[[120.9807,24.7255],[120.986,24.7285]]}},{"type":"Feature","properties":{},"geometry":{"type":"LineString","coordinates":[[120.9939,24.733],[120.9951,24.7336]]}},{"type":"Feature","properties":{},"geometry":{"type":"LineString","coordinates":[[120.9749,24.7222],[120.9767,24.7233]]}},{"type":"Feature","properties":{},"geometry":{"type":"LineString","coordinates":[[121.0013,24.7372],[121.0025,24.7378]]}},{"type":"Feature","properties":{},"geometry":{"type":"LineString","coordinates":[[121.0013,24.7372],[121.0012,24.737]]}},{"type":"Feature","properties":{},"geometry":{"type":"LineString","coordinates":[[120.9701,24.7196],[120.972,24.7206]]}},{"type":"Feature","properties":{},"geometry":{"type":"LineString","coordinates":[[120.9606,24.714],[120.9628,24.7154]]}},{"type":"Feature","properties":{},"geometry":{"type":"LineString","coordinates":[[120.9692,24.719],[120.9701,24.7196]]}},{"type":"Feature","properties":{},"geometry":{"type":"LineString","coordinates":[[121.0038,24.7385],[121.0025,24.7377]]}},{"type":"Feature","properties":{},"geometry":{"type":"LineString","coordinates":[[120.9652,24.7167],[120.9669,24.7177]]}},{"type":"Feature","properties":{},"geometry":{"type":"LineString","coordinates":[[121.0076,24.7407],[121.0038,24.7385]]}},{"type":"Feature","properties":{},"geometry":{"type":"LineString","coordinates":[[121.0011,24.7371],[121.0013,24.7372]]}},{"type":"Feature","properties":{},"geometry":{"type":"LineString","coordinates":[[121.0115,24.7434],[121.0123,24.7441]]}},{"type":"Feature","properties":{},"geometry":{"type":"LineString","coordinates":[[120.986,24.7285],[120.989,24.7302]]}},{"type":"Feature","properties":{},"geometry":{"type":"LineString","coordinates":[[120.9669,24.7177],[120.9674,24.718]]}},{"type":"Feature","properties":{},"geometry":{"type":"LineString","coordinates":[[120.972,24.7206],[120.9749,24.7222]]}},{"type":"Feature","properties":{},"geometry":{"type":"LineString","coordinates":[[120.9781,24.7241],[120.9807,24.7255]]}},{"type":"Feature","properties":{},"geometry":{"type":"LineString","coordinates":[[120.9674,24.718],[120.9692,24.719]]}},{"type":"Feature","properties":{},"geometry":{"type":"LineString","coordinates":[[120.9628,24.7154],[120.9652,24.7167]]}},{"type":"Feature","properties":{},"geometry":{"type":"LineString","coordinates":[[120.9458,24.7022],[120.956,24.7109]]}},{"type":"Feature","properties":{},"geometry":{"type":"LineString","coordinates":[[121.0096,24.7421],[121.0115,24.7434]]}},{"type":"Feature","properties":{},"geometry":{"type":"LineString","coordinates":[[120.9589,24.7129],[120.9606,24.714]]}},{"type":"Feature","properties":{},"geometry":{"type":"LineString","coordinates":[[120.9388,24.6942],[120.9458,24.7022]]}},{"type":"Feature","properties":{},"geometry":{"type":"LineString","coordinates":[[120.9271,24.677],[120.9388,24.6942]]}},{"type":"Feature","properties":{},"geometry":{"type":"LineString","coordinates":[[120.9254,24.6744],[120.9271,24.677]]}},{"type":"Feature","properties":{},"geometry":{"type":"LineString","coordinates":[[120.8884,24.6368],[120.8866,24.6359]]}},{"type":"Feature","properties":{},"geometry":{"type":"LineString","coordinates":[[120.8866,24.6359],[120.8884,24.6369]]}},{"type":"Feature","properties":{},"geometry":{"type":"LineString","coordinates":[[120.9016,24.6456],[120.899,24.6436]]}},{"type":"Feature","properties":{},"geometry":{"type":"LineString","coordinates":[[120.8734,24.6287],[120.8714,24.6275]]}},{"type":"Feature","properties":{},"geometry":{"type":"LineString","coordinates":[[120.9192,24.665],[120.9254,24.6744]]}},{"type":"Feature","properties":{},"geometry":{"type":"LineString","coordinates":[[120.895,24.6408],[120.8989,24.6436]]}},{"type":"Feature","properties":{},"geometry":{"type":"LineString","coordinates":[[120.8733,24.6288],[120.8752,24.6298]]}},{"type":"Feature","properties":{},"geometry":{"type":"LineString","coordinates":[[120.9173,24.6623],[120.9192,24.665]]}},{"type":"Feature","properties":{},"geometry":{"type":"LineString","coordinates":[[120.8989,24.6436],[120.9015,24.6456]]}},{"type":"Feature","properties":{},"geometry":{"type":"LineString","coordinates":[[120.899,24.6436],[120.895,24.6408]]}},{"type":"Feature","properties":{},"geometry":{"type":"LineString","coordinates":[[120.9015,24.6456],[120.9072,24.6505],[120.9144,24.6584]]}},{"type":"Feature","properties":{},"geometry":{"type":"LineString","coordinates":[[120.8906,24.6381],[120.895,24.6408]]}},{"type":"Feature","properties":{},"geometry":{"type":"LineString","coordinates":[[120.8866,24.6359],[120.8788,24.6317]]}},{"type":"Feature","properties":{},"geometry":{"type":"LineString","coordinates":[[120.8787,24.6318],[120.8866,24.6359]]}},{"type":"Feature","properties":{},"geometry":{"type":"LineString","coordinates":[[120.9144,24.6584],[120.9158,24.6602]]}},{"type":"Feature","properties":{},"geometry":{"type":"LineString","coordinates":[[120.6139,24.0899],[120.613,24.0817]]}},{"type":"Feature","properties":{},"geometry":{"type":"LineString","coordinates":[[120.613,24.0817],[120.6117,24.0748]]}},{"type":"Feature","properties":{},"geometry":{"type":"LineString","coordinates":[[120.6117,24.0748],[120.6105,24.0707]]}},{"type":"Feature","properties":{},"geometry":{"type":"LineString","coordinates":[[120.6059,24.0562],[120.6053,24.0529]]}},{"type":"Feature","properties":{},"geometry":{"type":"LineString","coordinates":[[120.6084,24.0648],[120.6069,24.06]]}},{"type":"Feature","properties":{},"geometry":{"type":"LineString","coordinates":[[120.6093,24.0672],[120.6084,24.0648]]}},{"type":"Feature","properties":{},"geometry":{"type":"LineString","coordinates":[[120.6069,24.06],[120.6059,24.0562]]}},{"type":"Feature","properties":{},"geometry":{"type":"LineString","coordinates":[[120.6105,24.0707],[120.6093,24.0672]]}},{"type":"Feature","properties":{},"geometry":{"type":"LineString","coordinates":[[120.6045,24.0482],[120.6044,24.0469]]}},{"type":"Feature","properties":{},"geometry":{"type":"LineString","coordinates":[[120.6053,24.0529],[120.6045,24.0482]]}},{"type":"Feature","properties":{},"geometry":{"type":"LineString","coordinates":[[121.0326,24.7736],[121.032,24.7716]]}},{"type":"Feature","properties":{},"geometry":{"type":"LineString","coordinates":[[121.0285,24.7632],[121.0292,24.7648]]}},{"type":"Feature","properties":{},"geometry":{"type":"LineString","coordinates":[[121.0292,24.7648],[121.03,24.7665]]}},{"type":"Feature","properties":{},"geometry":{"type":"LineString","coordinates":[[121.0293,24.7647],[121.0286,24.7632]]}},{"type":"Feature","properties":{},"geometry":{"type":"LineString","coordinates":[[121.0319,24.7716],[121.0325,24.7736]]}},{"type":"Feature","properties":{},"geometry":{"type":"LineString","coordinates":[[121.0301,24.7665],[121.0293,24.7647]]}},{"type":"Feature","properties":{},"geometry":{"type":"LineString","coordinates":[[121.0286,24.7632],[121.0268,24.76]]}},{"type":"Feature","properties":{},"geometry":{"type":"LineString","coordinates":[[121.032,24.7716],[121.0301,24.7665]]}},{"type":"Feature","properties":{},"geometry":{"type":"LineString","coordinates":[[121.0267,24.76],[121.0285,24.7632]]}},{"type":"Feature","properties":{},"geometry":{"type":"LineString","coordinates":[[121.03,24.7665],[121.0319,24.7716]]}},{"type":"Feature","properties":{},"geometry":{"type":"LineString","coordinates":[[121.021,24.7522],[121.0222,24.7536]]}},{"type":"Feature","properties":{},"geometry":{"type":"LineString","coordinates":[[121.0222,24.7535],[121.021,24.7521]]}},{"type":"Feature","properties":{},"geometry":{"type":"LineString","coordinates":[[121.0182,24.7492],[121.0146,24.7459]]}},{"type":"Feature","properties":{},"geometry":{"type":"LineString","coordinates":[[121.0123,24.7441],[121.0145,24.7459]]}},{"type":"Feature","properties":{},"geometry":{"type":"LineString","coordinates":[[121.0145,24.7459],[121.0182,24.7492]]}},{"type":"Feature","properties":{},"geometry":{"type":"LineString","coordinates":[[121.0146,24.7459],[121.0124,24.744]]}},{"type":"Feature","properties":{},"geometry":{"type":"LineString","coordinates":[[121.0078,24.7409],[121.0096,24.7421]]}},{"type":"Feature","properties":{},"geometry":{"type":"LineString","coordinates":[[121.0096,24.7421],[121.0078,24.7409]]}},{"type":"Feature","properties":{},"geometry":{"type":"LineString","coordinates":[[121.0075,24.7408],[121.0078,24.7409]]}},{"type":"Feature","properties":{},"geometry":{"type":"LineString","coordinates":[[121.0078,24.7409],[121.0076,24.7407]]}},{"type":"Feature","properties":{},"geometry":{"type":"LineString","coordinates":[[120.9969,24.7347],[120.9988,24.7358]]}},{"type":"Feature","properties":{},"geometry":{"type":"LineString","coordinates":[[120.9998,24.7363],[121.0011,24.7371]]}},{"type":"Feature","properties":{},"geometry":{"type":"LineString","coordinates":[[120.9988,24.7357],[120.997,24.7347]]}},{"type":"Feature","properties":{},"geometry":{"type":"LineString","coordinates":[[120.9951,24.7336],[120.9969,24.7347]]}},{"type":"Feature","properties":{},"geometry":{"type":"LineString","coordinates":[[121.0012,24.737],[120.9998,24.7363]]}},{"type":"Feature","properties":{},"geometry":{"type":"LineString","coordinates":[[120.9988,24.7358],[120.9998,24.7363]]}},{"type":"Feature","properties":{},"geometry":{"type":"LineString","coordinates":[[120.997,24.7347],[120.9951,24.7336]]}},{"type":"Feature","properties":{},"geometry":{"type":"LineString","coordinates":[[120.9998,24.7363],[120.9988,24.7357]]}},{"type":"Feature","properties":{},"geometry":{"type":"LineString","coordinates":[[121.6174,25.0544],[121.6079,25.0533]]}},{"type":"Feature","properties":{},"geometry":{"type":"LineString","coordinates":[[120.7431,24.5328],[120.7391,24.5274]]}},{"type":"Feature","properties":{},"geometry":{"type":"LineString","coordinates":[[120.7391,24.5274],[120.7378,24.5255]]}},{"type":"Feature","properties":{},"geometry":{"type":"LineString","coordinates":[[120.7045,24.4642],[120.704,24.4623]]}},{"type":"Feature","properties":{},"geometry":{"type":"LineString","coordinates":[[120.7077,24.4731],[120.7045,24.4642]]}},{"type":"Feature","properties":{},"geometry":{"type":"LineString","coordinates":[[120.8516,24.6168],[120.8317,24.6082]]}},{"type":"Feature","properties":{},"geometry":{"type":"LineString","coordinates":[[120.7952,24.591],[120.7922,24.5887]]}},{"type":"Feature","properties":{},"geometry":{"type":"LineString","coordinates":[[120.7838,24.5809],[120.7684,24.5636]]}},{"type":"Feature","properties":{},"geometry":{"type":"LineString","coordinates":[[120.8054,24.5966],[120.7952,24.591]]}},{"type":"Feature","properties":{},"geometry":{"type":"LineString","coordinates":[[120.3587,22.7172],[120.3577,22.7131],[120.3552,22.7094],[120.3513,22.7069],[120.3466,22.7058]]}},{"type":"Feature","properties":{},"geometry":{"type":"LineString","coordinates":[[120.3466,22.7058],[120.3513,22.7069],[120.3551,22.7094],[120.3577,22.7131],[120.3587,22.7172]]}},{"type":"Feature","properties":{},"geometry":{"type":"LineString","coordinates":[[121.5073,25.0394],[121.5067,25.037]]}},{"type":"Feature","properties":{},"geometry":{"type":"LineString","coordinates":[[121.447,25.004],[121.4396,25.0045]]}},{"type":"Feature","properties":{},"geometry":{"type":"LineString","coordinates":[[121.4396,25.0046],[121.447,25.004]]}},{"type":"Feature","properties":{},"geometry":{"type":"LineString","coordinates":[[120.5831,23.879],[120.5766,23.875]]}},{"type":"Feature","properties":{},"geometry":{"type":"LineString","coordinates":[[121.0426,24.8177],[121.0393,24.8045]]}},{"type":"Feature","properties":{},"geometry":{"type":"LineString","coordinates":[[121.0386,24.802],[121.0413,24.8125]]}},{"type":"Feature","properties":{},"geometry":{"type":"LineString","coordinates":[[121.0448,24.8261],[121.0442,24.8238]]}},{"type":"Feature","properties":{},"geometry":{"type":"LineString","coordinates":[[121.0441,24.8238],[121.0447,24.8261]]}},{"type":"Feature","properties":{},"geometry":{"type":"LineString","coordinates":[[121.5148,25.048],[121.5116,25.0484],[121.5096,25.047]]}},{"type":"Feature","properties":{},"geometry":{"type":"LineString","coordinates":[[120.6292,24.1837],[120.6232,24.1666],[120.6217,24.16],[120.6189,24.1421],[120.6167,24.1196]]}},{"type":"Feature","properties":{},"geometry":{"type":"LineString","coordinates":[[120.7189,24.4923],[120.7179,24.4907]]}},{"type":"Feature","properties":{},"geometry":{"type":"LineString","coordinates":[[120.7127,24.4826],[120.7178,24.4907]]}},{"type":"Feature","properties":{},"geometry":{"type":"LineString","coordinates":[[120.7637,24.5579],[120.7645,24.5589]]}},{"type":"Feature","properties":{},"geometry":{"type":"LineString","coordinates":[[120.7534,24.5454],[120.7594,24.5527]]}},{"type":"Feature","properties":{},"geometry":{"type":"LineString","coordinates":[[120.739,24.5274],[120.7431,24.5328]]}},{"type":"Feature","properties":{},"geometry":{"type":"LineString","coordinates":[[120.7645,24.5589],[120.765,24.5595]]}},{"type":"Feature","properties":{},"geometry":{"type":"LineString","coordinates":[[120.7081,24.4739],[120.7102,24.4782]]}},{"type":"Feature","properties":{},"geometry":{"type":"LineString","coordinates":[[120.6976,24.4358],[120.6961,24.4299]]}},{"type":"Feature","properties":{},"geometry":{"type":"LineString","coordinates":[[120.7626,24.5566],[120.7637,24.5579]]}},{"type":"Feature","properties":{},"geometry":{"type":"LineString","coordinates":[[120.7178,24.4907],[120.7188,24.4924]]}},{"type":"Feature","properties":{},"geometry":{"type":"LineString","coordinates":[[120.7651,24.5595],[120.7645,24.5589]]}},{"type":"Feature","properties":{},"geometry":{"type":"LineString","coordinates":[[120.7637,24.5579],[120.7626,24.5566]]}},{"type":"Feature","properties":{},"geometry":{"type":"LineString","coordinates":[[120.7102,24.4781],[120.7081,24.4739]]}},{"type":"Feature","properties":{},"geometry":{"type":"LineString","coordinates":[[120.7109,24.4794],[120.7102,24.4781]]}},{"type":"Feature","properties":{},"geometry":{"type":"LineString","coordinates":[[120.76,24.5534],[120.7595,24.5526]]}},{"type":"Feature","properties":{},"geometry":{"type":"LineString","coordinates":[[120.6981,24.438],[120.6976,24.4358]]}},{"type":"Feature","properties":{},"geometry":{"type":"LineString","coordinates":[[120.7625,24.5565],[120.7626,24.5566]]}},{"type":"Feature","properties":{},"geometry":{"type":"LineString","coordinates":[[120.7032,24.4593],[120.7039,24.4623]]}},{"type":"Feature","properties":{},"geometry":{"type":"LineString","coordinates":[[120.7179,24.4907],[120.7128,24.4825]]}},{"type":"Feature","properties":{},"geometry":{"type":"LineString","coordinates":[[120.7277,24.508],[120.7286,24.5095]]}},{"type":"Feature","properties":{},"geometry":{"type":"LineString","coordinates":[[120.7102,24.4782],[120.7108,24.4794]]}},{"type":"Feature","properties":{},"geometry":{"type":"LineString","coordinates":[[120.6987,24.4407],[120.6981,24.438]]}},{"type":"Feature","properties":{},"geometry":{"type":"LineString","coordinates":[[120.7594,24.5527],[120.76,24.5534]]}},{"type":"Feature","properties":{},"geometry":{"type":"LineString","coordinates":[[120.7021,24.4548],[120.7022,24.4553]]}},{"type":"Feature","properties":{},"geometry":{"type":"LineString","coordinates":[[120.7039,24.4623],[120.7044,24.4642]]}},{"type":"Feature","properties":{},"geometry":{"type":"LineString","coordinates":[[120.7645,24.5589],[120.7637,24.5579]]}},{"type":"Feature","properties":{},"geometry":{"type":"LineString","coordinates":[[120.7626,24.5566],[120.7625,24.5565]]}},{"type":"Feature","properties":{},"geometry":{"type":"LineString","coordinates":[[120.7595,24.5526],[120.7534,24.5453]]}},{"type":"Feature","properties":{},"geometry":{"type":"LineString","coordinates":[[120.7333,24.5178],[120.7358,24.5222]]}},{"type":"Feature","properties":{},"geometry":{"type":"LineString","coordinates":[[120.7077,24.4731],[120.7081,24.4739]]}},{"type":"Feature","properties":{},"geometry":{"type":"LineString","coordinates":[[120.765,24.5595],[120.7684,24.5636]]}},{"type":"Feature","properties":{},"geometry":{"type":"LineString","coordinates":[[120.7188,24.4924],[120.7208,24.4958]]}},{"type":"Feature","properties":{},"geometry":{"type":"LineString","coordinates":[[120.7625,24.5565],[120.76,24.5534]]}},{"type":"Feature","properties":{},"geometry":{"type":"LineString","coordinates":[[120.729,24.5102],[120.7309,24.5136]]}},{"type":"Feature","properties":{},"geometry":{"type":"LineString","coordinates":[[120.7128,24.4825],[120.7109,24.4794]]}},{"type":"Feature","properties":{},"geometry":{"type":"LineString","coordinates":[[120.7081,24.4739],[120.7077,24.4731]]}},{"type":"Feature","properties":{},"geometry":{"type":"LineString","coordinates":[[120.7108,24.4794],[120.7127,24.4826]]}},{"type":"Feature","properties":{},"geometry":{"type":"LineString","coordinates":[[120.76,24.5534],[120.7625,24.5565]]}},{"type":"Feature","properties":{},"geometry":{"type":"LineString","coordinates":[[120.7358,24.5222],[120.737,24.5243]]}},{"type":"Feature","properties":{},"geometry":{"type":"LineString","coordinates":[[120.7044,24.4642],[120.7077,24.4731]]}},{"type":"Feature","properties":{},"geometry":{"type":"LineString","coordinates":[[120.7431,24.5328],[120.7458,24.5363]]}},{"type":"Feature","properties":{},"geometry":{"type":"LineString","coordinates":[[120.6961,24.4299],[120.6958,24.4287]]}},{"type":"Feature","properties":{},"geometry":{"type":"LineString","coordinates":[[120.7534,24.5453],[120.7503,24.5415]]}},{"type":"Feature","properties":{},"geometry":{"type":"LineString","coordinates":[[121.5201,25.0471],[121.5357,25.0448],[121.5463,25.045],[121.554,25.0444],[121.5581,25.0452],[121.5695,25.0491],[121.5817,25.0492],[121.6011,25.0523]]}},{"type":"Feature","properties":{},"geometry":{"type":"LineString","coordinates":[[120.8752,24.6298],[120.8787,24.6318]]}},{"type":"Feature","properties":{},"geometry":{"type":"LineString","coordinates":[[120.8788,24.6317],[120.8753,24.6298]]}},{"type":"Feature","properties":{},"geometry":{"type":"LineString","coordinates":[[121.6207,25.0546],[121.6174,25.0544]]}},{"type":"Feature","properties":{},"geometry":{"type":"LineString","coordinates":[[120.6138,23.9555],[120.6136,23.958]]}},{"type":"Feature","properties":{},"geometry":{"type":"LineString","coordinates":[[120.613,23.9658],[120.6123,23.9729]]}},{"type":"Feature","properties":{},"geometry":{"type":"LineString","coordinates":[[120.6121,23.975],[120.6116,23.9783]]}},{"type":"Feature","properties":{},"geometry":{"type":"LineString","coordinates":[[120.613,23.9658],[120.6131,23.9644]]}},{"type":"Feature","properties":{},"geometry":{"type":"LineString","coordinates":[[120.6131,23.9644],[120.613,23.9658]]}},{"type":"Feature","properties":{},"geometry":{"type":"LineString","coordinates":[[120.6117,23.9783],[120.6122,23.975]]}},{"type":"Feature","properties":{},"geometry":{"type":"LineString","coordinates":[[120.6124,23.9729],[120.613,23.9658]]}},{"type":"Feature","properties":{},"geometry":{"type":"LineString","coordinates":[[120.6137,23.9579],[120.6139,23.9555]]}},{"type":"Feature","properties":{},"geometry":{"type":"LineString","coordinates":[[120.6131,23.9644],[120.6137,23.9579]]}},{"type":"Feature","properties":{},"geometry":{"type":"LineString","coordinates":[[120.6123,23.9729],[120.6121,23.975]]}},{"type":"Feature","properties":{},"geometry":{"type":"LineString","coordinates":[[120.6136,23.958],[120.6131,23.9644]]}},{"type":"Feature","properties":{},"geometry":{"type":"LineString","coordinates":[[120.6122,23.975],[120.6124,23.9729]]}},{"type":"Feature","properties":{},"geometry":{"type":"LineString","coordinates":[[121.0198,24.7509],[121.021,24.7522]]}},{"type":"Feature","properties":{},"geometry":{"type":"LineString","coordinates":[[121.021,24.7521],[121.0198,24.7509]]}},{"type":"Feature","properties":{},"geometry":{"type":"LineString","coordinates":[[121.0198,24.7509],[121.0182,24.7492]]}},{"type":"Feature","properties":{},"geometry":{"type":"LineString","coordinates":[[121.0182,24.7492],[121.0198,24.7509]]}},{"type":"Feature","properties":{},"geometry":{"type":"LineString","coordinates":[[120.6175,24.1277],[120.6173,24.1265]]}},{"type":"Feature","properties":{},"geometry":{"type":"LineString","coordinates":[[120.6167,24.1196],[120.6151,24.1028]]}},{"type":"Feature","properties":{},"geometry":{"type":"LineString","coordinates":[[120.6176,24.13],[120.6176,24.1289]]}},{"type":"Feature","properties":{},"geometry":{"type":"LineString","coordinates":[[120.311,22.6905],[120.306,22.6858]]}},{"type":"Feature","properties":{},"geometry":{"type":"LineString","coordinates":[[120.3031,22.6835],[120.3059,22.6859]]}},{"type":"Feature","properties":{},"geometry":{"type":"LineString","coordinates":[[121.6028,25.0525],[121.603,25.0525]]}},{"type":"Feature","properties":{},"geometry":{"type":"LineString","coordinates":[[121.6078,25.0534],[121.6174,25.0545]]}},{"type":"Feature","properties":{},"geometry":{"type":"LineString","coordinates":[[121.5776,25.0491],[121.5685,25.0489],[121.5581,25.0451],[121.5535,25.0443],[121.5463,25.045],[121.5358,25.0447],[121.5196,25.0472]]}},{"type":"Feature","properties":{},"geometry":{"type":"LineString","coordinates":[[121.6028,25.0525],[121.6022,25.0523]]}},{"type":"Feature","properties":{},"geometry":{"type":"LineString","coordinates":[[121.5134,25.0483],[121.513,25.0483]]}},{"type":"Feature","properties":{},"geometry":{"type":"LineString","coordinates":[[121.5144,25.0481],[121.514,25.0482]]}},{"type":"Feature","properties":{},"geometry":{"type":"LineString","coordinates":[[121.5148,25.0481],[121.5201,25.0471]]}},{"type":"Feature","properties":{},"geometry":{"type":"LineString","coordinates":[[121.5209,25.047],[121.5202,25.0471]]}},{"type":"Feature","properties":{},"geometry":{"type":"LineString","coordinates":[[121.5221,25.0467],[121.5218,25.0468]]}},{"type":"Feature","properties":{},"geometry":{"type":"LineString","coordinates":[[121.5196,25.0472],[121.5148,25.048]]}},{"type":"Feature","properties":{},"geometry":{"type":"LineString","coordinates":[[121.4611,25.0104],[121.4609,25.0102]]}},{"type":"Feature","properties":{},"geometry":{"type":"LineString","coordinates":[[121.4614,25.0107],[121.4613,25.0105]]}},{"type":"Feature","properties":{},"geometry":{"type":"LineString","coordinates":[[121.4627,25.0122],[121.4662,25.0151]]}},{"type":"Feature","properties":{},"geometry":{"type":"LineString","coordinates":[[121.2123,25.0105],[121.2119,25.0102]]}},{"type":"Feature","properties":{},"geometry":{"type":"LineString","coordinates":[[121.2175,25.0157],[121.2172,25.0153]]}},{"type":"Feature","properties":{},"geometry":{"type":"LineString","coordinates":[[121.2169,25.0151],[121.2127,25.0109]]}},{"type":"Feature","properties":{},"geometry":{"type":"LineString","coordinates":[[121.2127,25.0109],[121.2169,25.0151]]}},{"type":"Feature","properties":{},"geometry":{"type":"LineString","coordinates":[[120.8233,24.6044],[120.8188,24.6025]]}},{"type":"Feature","properties":{},"geometry":{"type":"LineString","coordinates":[[120.8317,24.6082],[120.8216,24.6037]]}},{"type":"Feature","properties":{},"geometry":{"type":"LineString","coordinates":[[120.8319,24.6084],[120.8275,24.6065]]}},{"type":"Feature","properties":{},"geometry":{"type":"LineString","coordinates":[[120.8193,24.6028],[120.8317,24.6082]]}},{"type":"Feature","properties":{},"geometry":{"type":"LineString","coordinates":[[120.8348,24.6096],[120.8337,24.609]]}},{"type":"Feature","properties":{},"geometry":{"type":"LineString","coordinates":[[120.3237,23.4569],[120.3235,23.4521]]}},{"type":"Feature","properties":{},"geometry":{"type":"LineString","coordinates":[[120.3242,23.4681],[120.3241,23.4669]]}},{"type":"Feature","properties":{},"geometry":{"type":"LineString","coordinates":[[120.675,24.3329],[120.6753,24.3361]]}},{"type":"Feature","properties":{},"geometry":{"type":"LineString","coordinates":[[120.6754,24.336],[120.6751,24.3329]]}},{"type":"Feature","properties":{},"geometry":{"type":"LineString","coordinates":[[120.6917,24.4115],[120.6771,24.3508],[120.6754,24.336]]}},{"type":"Feature","properties":{},"geometry":{"type":"LineString","coordinates":[[120.6753,24.3361],[120.677,24.3505],[120.6916,24.4115]]}},{"type":"Feature","properties":{},"geometry":{"type":"LineString","coordinates":[[120.6938,24.4203],[120.6948,24.4243]]}},{"type":"Feature","properties":{},"geometry":{"type":"LineString","coordinates":[[120.6948,24.4243],[120.6938,24.4203]]}},{"type":"Feature","properties":{},"geometry":{"type":"LineString","coordinates":[[120.6938,24.4203],[120.6929,24.4165]]}},{"type":"Feature","properties":{},"geometry":{"type":"LineString","coordinates":[[120.6929,24.4165],[120.6938,24.4203]]}},{"type":"Feature","properties":{},"geometry":{"type":"LineString","coordinates":[[121.5169,25.0476],[121.5201,25.0471]]}},{"type":"Feature","properties":{},"geometry":{"type":"LineString","coordinates":[[121.5196,25.0472],[121.5148,25.048]]}},{"type":"Feature","properties":{},"geometry":{"type":"LineString","coordinates":[[121.5148,25.0481],[121.5169,25.0476]]}},{"type":"Feature","properties":{},"geometry":{"type":"LineString","coordinates":[[120.7458,24.5363],[120.7475,24.5382]]}},{"type":"Feature","properties":{},"geometry":{"type":"LineString","coordinates":[[120.7459,24.5362],[120.7431,24.5328]]}},{"type":"Feature","properties":{},"geometry":{"type":"LineString","coordinates":[[120.7475,24.5382],[120.7459,24.5362]]}},{"type":"Feature","properties":{},"geometry":{"type":"LineString","coordinates":[[120.7475,24.5382],[120.7492,24.5403]]}},{"type":"Feature","properties":{},"geometry":{"type":"LineString","coordinates":[[120.7503,24.5415],[120.7492,24.5403]]}},{"type":"Feature","properties":{},"geometry":{"type":"LineString","coordinates":[[120.7502,24.5415],[120.7534,24.5454]]}},{"type":"Feature","properties":{},"geometry":{"type":"LineString","coordinates":[[120.7492,24.5403],[120.7502,24.5415]]}},{"type":"Feature","properties":{},"geometry":{"type":"LineString","coordinates":[[120.7492,24.5403],[120.7475,24.5382]]}},{"type":"Feature","properties":{},"geometry":{"type":"LineString","coordinates":[[120.692,24.4131],[120.6929,24.4165]]}},{"type":"Feature","properties":{},"geometry":{"type":"LineString","coordinates":[[120.6929,24.4165],[120.6921,24.413]]}},{"type":"Feature","properties":{},"geometry":{"type":"LineString","coordinates":[[120.6916,24.4115],[120.692,24.4131]]}},{"type":"Feature","properties":{},"geometry":{"type":"LineString","coordinates":[[120.6921,24.413],[120.6917,24.4115]]}},{"type":"Feature","properties":{},"geometry":{"type":"LineString","coordinates":[[121.6174,25.0545],[121.6207,25.0546]]}},{"type":"Feature","properties":{},"geometry":{"type":"LineString","coordinates":[[120.6588,24.2668],[120.6603,24.2686]]}},{"type":"Feature","properties":{},"geometry":{"type":"LineString","coordinates":[[120.6605,24.2687],[120.6589,24.2668]]}},{"type":"Feature","properties":{},"geometry":{"type":"LineString","coordinates":[[120.2881,22.9215],[120.2891,22.9194]]}},{"type":"Feature","properties":{},"geometry":{"type":"LineString","coordinates":[[120.324,23.4641],[120.3238,23.4592]]}},{"type":"Feature","properties":{},"geometry":{"type":"LineString","coordinates":[[120.3236,23.4553],[120.3236,23.4546]]}},{"type":"Feature","properties":{},"geometry":{"type":"LineString","coordinates":[[120.4149,23.7332],[120.4145,23.732]]}},{"type":"Feature","properties":{},"geometry":{"type":"LineString","coordinates":[[120.418,23.7413],[120.4193,23.7446]]}},{"type":"Feature","properties":{},"geometry":{"type":"LineString","coordinates":[[120.4193,23.7446],[120.4184,23.7422]]}},{"type":"Feature","properties":{},"geometry":{"type":"LineString","coordinates":[[120.5766,23.875],[120.5714,23.8718]]}},{"type":"Feature","properties":{},"geometry":{"type":"LineString","coordinates":[[120.5713,23.8718],[120.5766,23.875]]}},{"type":"Feature","properties":{},"geometry":{"type":"LineString","coordinates":[[121.2169,25.0151],[121.2127,25.0109]]}},{"type":"Feature","properties":{},"geometry":{"type":"LineString","coordinates":[[121.2127,25.0109],[121.2169,25.0151]]}},{"type":"Feature","properties":{},"geometry":{"type":"LineString","coordinates":[[121.0413,24.8125],[121.0434,24.8206]]}},{"type":"Feature","properties":{},"geometry":{"type":"LineString","coordinates":[[121.0434,24.8206],[121.0426,24.8177]]}},{"type":"Feature","properties":{},"geometry":{"type":"LineString","coordinates":[[121.0393,24.8045],[121.0361,24.7919]]}},{"type":"Feature","properties":{},"geometry":{"type":"LineString","coordinates":[[121.036,24.7919],[121.0386,24.802]]}},{"type":"Feature","properties":{},"geometry":{"type":"LineString","coordinates":[[120.8317,24.6082],[120.8216,24.6037]]}},{"type":"Feature","properties":{},"geometry":{"type":"LineString","coordinates":[[120.8193,24.6028],[120.8317,24.6082]]}},{"type":"Feature","properties":{},"geometry":{"type":"LineString","coordinates":[[120.8216,24.6037],[120.8054,24.5966]]}},{"type":"Feature","properties":{},"geometry":{"type":"LineString","coordinates":[[120.8053,24.5967],[120.8193,24.6028]]}},{"type":"Feature","properties":{},"geometry":{"type":"LineString","coordinates":[[121.6022,25.0523],[121.6019,25.0523]]}},{"type":"Feature","properties":{},"geometry":{"type":"LineString","coordinates":[[121.6011,25.0523],[121.6028,25.0525]]}},{"type":"Feature","properties":{},"geometry":{"type":"LineString","coordinates":[[121.6035,25.0526],[121.603,25.0525]]}},{"type":"Feature","properties":{},"geometry":{"type":"LineString","coordinates":[[120.3116,22.6911],[120.311,22.6905]]}},{"type":"Feature","properties":{},"geometry":{"type":"LineString","coordinates":[[121.4672,25.0157],[121.4662,25.015]]}},{"type":"Feature","properties":{},"geometry":{"type":"LineString","coordinates":[[121.4627,25.0122],[121.4662,25.0151]]}},{"type":"Feature","properties":{},"geometry":{"type":"LineString","coordinates":[[121.4611,25.0104],[121.4627,25.0122]]}},{"type":"Feature","properties":{},"geometry":{"type":"LineString","coordinates":[[121.4627,25.0122],[121.461,25.0102]]}},{"type":"Feature","properties":{},"geometry":{"type":"LineString","coordinates":[[120.6162,24.1161],[120.6167,24.1196]]}},{"type":"Feature","properties":{},"geometry":{"type":"LineString","coordinates":[[120.5766,23.875],[120.5786,23.8762]]}},{"type":"Feature","properties":{},"geometry":{"type":"LineString","coordinates":[[120.3235,23.4531],[120.3235,23.4546]]}},{"type":"Feature","properties":{},"geometry":{"type":"LineString","coordinates":[[120.3239,23.4631],[120.3243,23.4697]]}},{"type":"Feature","properties":{},"geometry":{"type":"LineString","coordinates":[[120.5687,23.8702],[120.5693,23.8705]]}},{"type":"Feature","properties":{},"geometry":{"type":"LineString","coordinates":[[120.573,23.8727],[120.569,23.8703]]}},{"type":"Feature","properties":{},"geometry":{"type":"LineString","coordinates":[[120.8168,24.6017],[120.8177,24.6021]]}},{"type":"Feature","properties":{},"geometry":{"type":"LineString","coordinates":[[121.6079,25.0533],[121.6035,25.0526]]}},{"type":"Feature","properties":{},"geometry":{"type":"LineString","coordinates":[[121.6035,25.0526],[121.6078,25.0534]]}},{"type":"Feature","properties":{},"geometry":{"type":"LineString","coordinates":[[121.4523,25.0037],[121.4527,25.0037]]}},{"type":"Feature","properties":{},"geometry":{"type":"LineString","coordinates":[[121.4523,25.0037],[121.4518,25.0037]]}},{"type":"Feature","properties":{},"geometry":{"type":"LineString","coordinates":[[121.2196,25.0177],[121.2204,25.0185]]}},{"type":"Feature","properties":{},"geometry":{"type":"LineString","coordinates":[[121.2196,25.0177],[121.2188,25.0169]]}},{"type":"Feature","properties":{},"geometry":{"type":"LineString","coordinates":[[120.6157,24.1079],[120.6164,24.116]]}},{"type":"Feature","properties":{},"geometry":{"type":"LineString","coordinates":[[120.6153,24.1074],[120.6162,24.1161]]}},{"type":"Feature","properties":{},"geometry":{"type":"LineString","coordinates":[[121.3092,25.0556],[121.3091,25.0556]]}},{"type":"Feature","properties":{},"geometry":{"type":"LineString","coordinates":[[121.3091,25.0557],[121.3093,25.0556]]}},{"type":"Feature","properties":{},"geometry":{"type":"LineString","coordinates":[[121.3078,25.0561],[121.3079,25.0561]]}},{"type":"Feature","properties":{},"geometry":{"type":"LineString","coordinates":[[121.3079,25.0561],[121.3077,25.0561]]}},{"type":"Feature","properties":{},"geometry":{"type":"LineString","coordinates":[[121.3068,25.0564],[121.307,25.0564]]}},{"type":"Feature","properties":{},"geometry":{"type":"LineString","coordinates":[[121.307,25.0563],[121.3068,25.0564]]}},{"type":"Feature","properties":{},"geometry":{"type":"LineString","coordinates":[[121.3103,25.0552],[121.3108,25.055]]}},{"type":"Feature","properties":{},"geometry":{"type":"LineString","coordinates":[[121.3108,25.055],[121.3103,25.0552]]}},{"type":"Feature","properties":{},"geometry":{"type":"LineString","coordinates":[[121.3128,25.0541],[121.3124,25.0543]]}},{"type":"Feature","properties":{},"geometry":{"type":"LineString","coordinates":[[121.3124,25.0544],[121.3128,25.0542]]}},{"type":"Feature","properties":{},"geometry":{"type":"LineString","coordinates":[[121.314,25.0536],[121.3143,25.0535]]}},{"type":"Feature","properties":{},"geometry":{"type":"LineString","coordinates":[[121.3143,25.0534],[121.3139,25.0536]]}},{"type":"Feature","properties":{},"geometry":{"type":"LineString","coordinates":[[121.3209,25.0499],[121.3211,25.0498]]}},{"type":"Feature","properties":{},"geometry":{"type":"LineString","coordinates":[[121.3211,25.0498],[121.3209,25.0499]]}},{"type":"Feature","properties":{},"geometry":{"type":"LineString","coordinates":[[121.3243,25.048],[121.3248,25.0477]]}},{"type":"Feature","properties":{},"geometry":{"type":"LineString","coordinates":[[121.3248,25.0476],[121.3242,25.048]]}},{"type":"Feature","properties":{},"geometry":{"type":"LineString","coordinates":[[120.8898,24.6376],[120.8884,24.6368]]}},{"type":"Feature","properties":{},"geometry":{"type":"LineString","coordinates":[[120.8898,24.6377],[120.8906,24.6381]]}},{"type":"Feature","properties":{},"geometry":{"type":"LineString","coordinates":[[120.8884,24.6369],[120.8898,24.6377]]}},{"type":"Feature","properties":{},"geometry":{"type":"LineString","coordinates":[[120.8906,24.6381],[120.8898,24.6376]]}},{"type":"Feature","properties":{},"geometry":{"type":"LineString","coordinates":[[120.7378,24.5255],[120.739,24.5274]]}},{"type":"Feature","properties":{},"geometry":{"type":"LineString","coordinates":[[120.7378,24.5255],[120.737,24.5243]]}},{"type":"Feature","properties":{},"geometry":{"type":"LineString","coordinates":[[120.737,24.5243],[120.7378,24.5255]]}},{"type":"Feature","properties":{},"geometry":{"type":"LineString","coordinates":[[120.737,24.5243],[120.7358,24.5222]]}},{"type":"Feature","properties":{},"geometry":{"type":"LineString","coordinates":[[120.7286,24.5095],[120.729,24.5102]]}},{"type":"Feature","properties":{},"geometry":{"type":"LineString","coordinates":[[120.729,24.5102],[120.7286,24.5095]]}},{"type":"Feature","properties":{},"geometry":{"type":"LineString","coordinates":[[120.7309,24.5136],[120.7313,24.5144]]}},{"type":"Feature","properties":{},"geometry":{"type":"LineString","coordinates":[[120.7314,24.5143],[120.731,24.5136]]}},{"type":"Feature","properties":{},"geometry":{"type":"LineString","coordinates":[[120.7319,24.5154],[120.7333,24.5178]]}},{"type":"Feature","properties":{},"geometry":{"type":"LineString","coordinates":[[120.7319,24.5153],[120.7314,24.5143]]}},{"type":"Feature","properties":{},"geometry":{"type":"LineString","coordinates":[[120.7333,24.5178],[120.7319,24.5153]]}},{"type":"Feature","properties":{},"geometry":{"type":"LineString","coordinates":[[120.7313,24.5144],[120.7319,24.5154]]}},{"type":"Feature","properties":{},"geometry":{"type":"LineString","coordinates":[[120.7253,24.5034],[120.7247,24.5023]]}},{"type":"Feature","properties":{},"geometry":{"type":"LineString","coordinates":[[120.7253,24.5034],[120.7257,24.5044]]}},{"type":"Feature","properties":{},"geometry":{"type":"LineString","coordinates":[[120.7228,24.4993],[120.7246,24.5023]]}},{"type":"Feature","properties":{},"geometry":{"type":"LineString","coordinates":[[120.7247,24.5023],[120.7229,24.4993]]}},{"type":"Feature","properties":{},"geometry":{"type":"LineString","coordinates":[[120.7257,24.5043],[120.7253,24.5034]]}},{"type":"Feature","properties":{},"geometry":{"type":"LineString","coordinates":[[120.7257,24.5044],[120.727,24.5067]]}},{"type":"Feature","properties":{},"geometry":{"type":"LineString","coordinates":[[120.7278,24.508],[120.727,24.5067]]}},{"type":"Feature","properties":{},"geometry":{"type":"LineString","coordinates":[[120.727,24.5067],[120.7277,24.508]]}},{"type":"Feature","properties":{},"geometry":{"type":"LineString","coordinates":[[120.7225,24.4988],[120.7228,24.4993]]}},{"type":"Feature","properties":{},"geometry":{"type":"LineString","coordinates":[[120.7226,24.4988],[120.7214,24.4967]]}},{"type":"Feature","properties":{},"geometry":{"type":"LineString","coordinates":[[120.727,24.5067],[120.7257,24.5043]]}},{"type":"Feature","properties":{},"geometry":{"type":"LineString","coordinates":[[120.7246,24.5023],[120.7253,24.5034]]}},{"type":"Feature","properties":{},"geometry":{"type":"LineString","coordinates":[[120.7214,24.4967],[120.7209,24.4958]]}},{"type":"Feature","properties":{},"geometry":{"type":"LineString","coordinates":[[120.7208,24.4958],[120.7214,24.4967]]}},{"type":"Feature","properties":{},"geometry":{"type":"LineString","coordinates":[[120.7214,24.4967],[120.7225,24.4988]]}},{"type":"Feature","properties":{},"geometry":{"type":"LineString","coordinates":[[120.7229,24.4993],[120.7226,24.4988]]}},{"type":"Feature","properties":{},"geometry":{"type":"LineString","coordinates":[[121.6019,25.0523],[121.5821,25.0492],[121.5776,25.0491]]}},{"type":"Feature","properties":{},"geometry":{"type":"LineString","coordinates":[[121.4113,25.0053],[121.411,25.0054]]}},{"type":"Feature","properties":{},"geometry":{"type":"LineString","coordinates":[[121.411,25.0054],[121.4113,25.0054]]}},{"type":"Feature","properties":{},"geometry":{"type":"LineString","coordinates":[[121.3908,25.0109],[121.3924,25.0102]]}},{"type":"Feature","properties":{},"geometry":{"type":"LineString","coordinates":[[121.3923,25.0102],[121.3908,25.0108]]}},{"type":"Feature","properties":{},"geometry":{"type":"LineString","coordinates":[[121.3906,25.011],[121.3908,25.0109]]}},{"type":"Feature","properties":{},"geometry":{"type":"LineString","coordinates":[[121.3908,25.0108],[121.3905,25.0109]]}},{"type":"Feature","properties":{},"geometry":{"type":"LineString","coordinates":[[121.3873,25.0125],[121.387,25.0127]]}},{"type":"Feature","properties":{},"geometry":{"type":"LineString","coordinates":[[121.387,25.0127],[121.3873,25.0126]]}},{"type":"Feature","properties":{},"geometry":{"type":"LineString","coordinates":[[121.3325,25.0433],[121.3323,25.0435]]}},{"type":"Feature","properties":{},"geometry":{"type":"LineString","coordinates":[[121.3323,25.0435],[121.3325,25.0434]]}},{"type":"Feature","properties":{},"geometry":{"type":"LineString","coordinates":[[121.3288,25.0454],[121.3293,25.0452]]}},{"type":"Feature","properties":{},"geometry":{"type":"LineString","coordinates":[[121.3291,25.0452],[121.3288,25.0454]]}},{"type":"Feature","properties":{},"geometry":{"type":"LineString","coordinates":[[121.2982,25.0586],[121.2998,25.0583]]}},{"type":"Feature","properties":{},"geometry":{"type":"LineString","coordinates":[[121.2998,25.0582],[121.2982,25.0586]]}},{"type":"Feature","properties":{},"geometry":{"type":"LineString","coordinates":[[121.0658,24.8762],[121.0656,24.876]]}},{"type":"Feature","properties":{},"geometry":{"type":"LineString","coordinates":[[121.0656,24.876],[121.0657,24.8762]]}},{"type":"Feature","properties":{},"geometry":{"type":"LineString","coordinates":[[120.8565,24.6191],[120.8554,24.6185]]}},{"type":"Feature","properties":{},"geometry":{"type":"LineString","coordinates":[[120.8565,24.6192],[120.8589,24.6204]]}},{"type":"Feature","properties":{},"geometry":{"type":"LineString","coordinates":[[120.8554,24.6186],[120.8565,24.6192]]}},{"type":"Feature","properties":{},"geometry":{"type":"LineString","coordinates":[[120.8589,24.6203],[120.8565,24.6191]]}},{"type":"Feature","properties":{},"geometry":{"type":"LineString","coordinates":[[121.4518,25.0037],[121.447,25.004]]}},{"type":"Feature","properties":{},"geometry":{"type":"LineString","coordinates":[[121.4518,25.0037],[121.4523,25.0037]]}},{"type":"Feature","properties":{},"geometry":{"type":"LineString","coordinates":[[120.6958,24.4287],[120.6955,24.4271]]}},{"type":"Feature","properties":{},"geometry":{"type":"LineString","coordinates":[[120.6958,24.4287],[120.6961,24.4299]]}},{"type":"Feature","properties":{},"geometry":{"type":"LineString","coordinates":[[120.6948,24.4243],[120.6954,24.4271]]}},{"type":"Feature","properties":{},"geometry":{"type":"LineString","coordinates":[[120.6955,24.4271],[120.6948,24.4243]]}},{"type":"Feature","properties":{},"geometry":{"type":"LineString","coordinates":[[120.6997,24.4448],[120.6999,24.4458]]}},{"type":"Feature","properties":{},"geometry":{"type":"LineString","coordinates":[[120.7,24.4458],[120.6998,24.4448]]}},{"type":"Feature","properties":{},"geometry":{"type":"LineString","coordinates":[[120.6998,24.4448],[120.6995,24.4437]]}},{"type":"Feature","properties":{},"geometry":{"type":"LineString","coordinates":[[120.6994,24.4437],[120.6997,24.4448]]}},{"type":"Feature","properties":{},"geometry":{"type":"LineString","coordinates":[[120.6988,24.4409],[120.6987,24.4407]]}},{"type":"Feature","properties":{},"geometry":{"type":"LineString","coordinates":[[120.6988,24.4409],[120.6994,24.4437]]}},{"type":"Feature","properties":{},"geometry":{"type":"LineString","coordinates":[[120.6995,24.4437],[120.6988,24.4409]]}},{"type":"Feature","properties":{},"geometry":{"type":"LineString","coordinates":[[120.6987,24.4407],[120.6988,24.4409]]}},{"type":"Feature","properties":{},"geometry":{"type":"LineString","coordinates":[[120.9165,24.661],[120.9158,24.6601]]}},{"type":"Feature","properties":{},"geometry":{"type":"LineString","coordinates":[[120.9164,24.661],[120.9173,24.6623]]}},{"type":"Feature","properties":{},"geometry":{"type":"LineString","coordinates":[[120.9158,24.6602],[120.9164,24.661]]}},{"type":"Feature","properties":{},"geometry":{"type":"LineString","coordinates":[[120.9158,24.6601],[120.9144,24.6583]]}},{"type":"Feature","properties":{},"geometry":{"type":"LineString","coordinates":[[120.7022,24.4553],[120.7032,24.4593]]}},{"type":"Feature","properties":{},"geometry":{"type":"LineString","coordinates":[[120.7023,24.4552],[120.7022,24.4548]]}},{"type":"Feature","properties":{},"geometry":{"type":"LineString","coordinates":[[120.7022,24.4548],[120.7,24.4458]]}},{"type":"Feature","properties":{},"geometry":{"type":"LineString","coordinates":[[120.6999,24.4458],[120.7021,24.4548]]}},{"type":"Feature","properties":{},"geometry":{"type":"LineString","coordinates":[[120.306,22.6858],[120.3032,22.6834]]}},{"type":"Feature","properties":{},"geometry":{"type":"LineString","coordinates":[[120.9579,24.7122],[120.956,24.7109]]}},{"type":"Feature","properties":{},"geometry":{"type":"LineString","coordinates":[[120.956,24.7109],[120.9579,24.7122]]}},{"type":"Feature","properties":{},"geometry":{"type":"LineString","coordinates":[[120.9579,24.7122],[120.9589,24.7129]]}},{"type":"Feature","properties":{},"geometry":{"type":"LineString","coordinates":[[120.959,24.7129],[120.9579,24.7122]]}},{"type":"Feature","properties":{},"geometry":{"type":"LineString","coordinates":[[120.7853,24.5825],[120.7838,24.5809]]}},{"type":"Feature","properties":{},"geometry":{"type":"LineString","coordinates":[[120.7838,24.581],[120.7853,24.5825]]}},{"type":"Feature","properties":{},"geometry":{"type":"LineString","coordinates":[[120.7921,24.5887],[120.7952,24.591]]}},{"type":"Feature","properties":{},"geometry":{"type":"LineString","coordinates":[[120.7916,24.5883],[120.7921,24.5887]]}},{"type":"Feature","properties":{},"geometry":{"type":"LineString","coordinates":[[120.7909,24.5877],[120.7916,24.5883]]}},{"type":"Feature","properties":{},"geometry":{"type":"LineString","coordinates":[[120.7853,24.5825],[120.7866,24.5838]]}},{"type":"Feature","properties":{},"geometry":{"type":"LineString","coordinates":[[120.7866,24.5838],[120.7874,24.5846]]}},{"type":"Feature","properties":{},"geometry":{"type":"LineString","coordinates":[[120.7866,24.5837],[120.7853,24.5825]]}},{"type":"Feature","properties":{},"geometry":{"type":"LineString","coordinates":[[120.7875,24.5846],[120.7866,24.5837]]}},{"type":"Feature","properties":{},"geometry":{"type":"LineString","coordinates":[[120.7909,24.5877],[120.7875,24.5846]]}},{"type":"Feature","properties":{},"geometry":{"type":"LineString","coordinates":[[120.7917,24.5883],[120.7909,24.5877]]}},{"type":"Feature","properties":{},"geometry":{"type":"LineString","coordinates":[[120.7922,24.5887],[120.7917,24.5883]]}},{"type":"Feature","properties":{},"geometry":{"type":"LineString","coordinates":[[120.6156,23.9325],[120.6155,23.9337]]}},{"type":"Feature","properties":{},"geometry":{"type":"LineString","coordinates":[[120.6156,23.9337],[120.6156,23.9325]]}},{"type":"Feature","properties":{},"geometry":{"type":"LineString","coordinates":[[120.6155,23.9337],[120.6151,23.9395]]}},{"type":"Feature","properties":{},"geometry":{"type":"LineString","coordinates":[[120.6152,23.9395],[120.6156,23.9337]]}},{"type":"Feature","properties":{},"geometry":{"type":"LineString","coordinates":[[120.6744,24.3253],[120.6741,24.3217]]}},{"type":"Feature","properties":{},"geometry":{"type":"LineString","coordinates":[[120.6744,24.3253],[120.675,24.3329]]}},{"type":"Feature","properties":{},"geometry":{"type":"LineString","coordinates":[[120.6751,24.3329],[120.6744,24.3253]]}},{"type":"Feature","properties":{},"geometry":{"type":"LineString","coordinates":[[120.6736,24.3162],[120.6741,24.3217]]}},{"type":"Feature","properties":{},"geometry":{"type":"LineString","coordinates":[[121.0429,24.8189],[121.0432,24.8199]]}},{"type":"Feature","properties":{},"geometry":{"type":"LineString","coordinates":[[120.3213,22.7011],[120.3182,22.6974]]}},{"type":"Feature","properties":{},"geometry":{"type":"LineString","coordinates":[[120.3181,22.6974],[120.3213,22.7011]]}}]}