{"type":"FeatureCollection","features":[{"type":"Feature","properties":{"name":"彰化","name_en":"Changhua","name_zh":"彰化"},"geometry":{"type":"Point","coordinates":[120.57519470000001,23.8741536]}},{"type":"Feature","properties":{"name":"台中","name_en":"Taichung","name_zh":"台中"},"geometry":{"type":"Point","coordinates":[120.6159381,24.112099]}},{"type":"Feature","properties":{"name":"雲林","name_en":"Yunlin","name_zh":"雲林"},"geometry":{"type":"Point","coordinates":[120.41615770000001,23.7365203]}},{"type":"Feature","properties":{"name":"苗栗","name_en":"Miaoli","name_zh":"苗栗"},"geometry":{"type":"Point","coordinates":[120.82568490000001,24.6055644]}},{"type":"Feature","properties":{"name":"台北","name_en":"Taipei","name_zh":"台北"},"geometry":{"type":"Point","coordinates":[121.5170503,25.047554]}},{"type":"Feature","properties":{"name":"左營","name_en":"Zuoying","name_zh":"左營"},"geometry":{"type":"Point","coordinates":[120.30767440000001,22.6872433]}},{"type":"Feature","properties":{"name":"新竹","name_en":"Hsinchu","name_zh":"新竹"},"geometry":{"type":"Point","coordinates":[121.04020550000001,24.8082959]}},{"type":"Feature","properties":{"name":"台南","name_en":"Tainan","name_zh":"台南"},"geometry":{"type":"Point","coordinates":[120.2864152,22.924673]}},{"type":"Feature","properties":{"name":"嘉義","name_en":"Chiayi","name_zh":"嘉義"},"geometry":{"type":"Point","coordinates":[120.32379150000001,23.4592368]}},{"type":"Feature","properties":{"name":"板橋","name_en":"Banqiao","name_zh":"板橋"},"geometry":{"type":"Point","coordinates":[121.46426160000001,25.0137054]}},{"type":"Feature","properties":{"name":"南港","name_en":"Nangang","name_zh":"南港"},"geometry":{"type":"Point","coordinates":[121.6073029,25.0532701]}},{"type":"Feature","properties":{"name":"桃園","name_en":"Taoyuan","name_zh":"桃園"},"geometry":{"type":"Point","coordinates":[121.2148277,25.0130247]}}]}